startIp,endIp,continent,country_code,country,state,city,zip,timezone,is_dst,latitude,longitude,accuracy
2000::,2000:ffff:ffff:ffff:ffff:ffff:ffff:ffff,EU,CH,Switzerland,Fribourg,Murten/Morat,3285,Europe/Zurich,1,46.92827,7.11715,2
2001::,2001:0:ffff:ffff:ffff:ffff:ffff:ffff,NA,US,United States,California,Inglewood,93599,America/Los_Angeles,1,33.96168,-118.35313,2
2001:1::,2001:1:ffff:ffff:ffff:ffff:ffff:ffff,EU,CH,Switzerland,Fribourg,Murten/Morat,3285,Europe/Zurich,1,46.92827,7.11715,2
2001:2::,2001:2:0:ffff:ffff:ffff:ffff:ffff,NA,US,United States,California,Inglewood,93599,America/Los_Angeles,1,33.96168,-118.35313,2
2001:2:1::,2001:2:ffff:ffff:ffff:ffff:ffff:ffff,EU,CH,Switzerland,Fribourg,Murten/Morat,3285,Europe/Zurich,1,46.92827,7.11715,2
2001:3::,2001:3:ffff:ffff:ffff:ffff:ffff:ffff,NA,US,United States,California,Inglewood,93599,America/Los_Angeles,1,33.96168,-118.35313,2
2001:4::,2001:4:111:ffff:ffff:ffff:ffff:ffff,EU,CH,Switzerland,Fribourg,Murten/Morat,3285,Europe/Zurich,1,46.92827,7.11715,2
2001:4:112::,2001:4:112:ffff:ffff:ffff:ffff:ffff,EU,BE,Belgium,Brussels Capital,Brussels,1210,Europe/Brussels,1,50.85045,4.34878,2
2001:4:113::,2001:4:ffff:ffff:ffff:ffff:ffff:ffff,EU,CH,Switzerland,Fribourg,Murten/Morat,3285,Europe/Zurich,1,46.92827,7.11715,2
2001:5::,2001:5:0:ffff:ffff:ffff:ffff:ffff,EU,NL,The Netherlands,North Holland,Amsterdam,1384,Europe/Amsterdam,1,52.37403,4.88969,2
2001:5:1::,2001:5:1:ffff:ffff:ffff:ffff:ffff,AS,TR,Turkey,Istanbul,Üsküdar,34744,Europe/Istanbul,0,41.02274,29.01366,2
2001:5:2::,2001:5:2:ffff:ffff:ffff:ffff:ffff,EU,NL,The Netherlands,North Holland,Amsterdam,1384,Europe/Amsterdam,1,52.37403,4.88969,2
2001:5:3::,2001:5:3:ffff:ffff:ffff:ffff:ffff,NA,US,United States,California,San Jose (New Almaden),,America/Los_Angeles,1,37.1948,-121.817,2
2001:5:4::,2001:5:4:ffff:ffff:ffff:ffff:ffff,EU,NL,The Netherlands,North Holland,Amsterdam,1384,Europe/Amsterdam,1,52.37403,4.88969,2
2001:5:5::,2001:5:5:ffff:ffff:ffff:ffff:ffff,EU,BE,Belgium,Flanders,Dendermonde,9290,Europe/Brussels,1,51.02869,4.10106,2
2001:5:6::,2001:5:ffff:ffff:ffff:ffff:ffff:ffff,EU,NL,The Netherlands,North Holland,Amsterdam,1384,Europe/Amsterdam,1,52.37403,4.88969,2
2001:6::,2001:f:ffff:ffff:ffff:ffff:ffff:ffff,EU,CH,Switzerland,Fribourg,Murten/Morat,3285,Europe/Zurich,1,46.92827,7.11715,2
2001:10::,2001:2f:ffff:ffff:ffff:ffff:ffff:ffff,NA,US,United States,California,Inglewood,93599,America/Los_Angeles,1,33.96168,-118.35313,2
2001:30::,2001:1ff:ffff:ffff:ffff:ffff:ffff:ffff,EU,CH,Switzerland,Fribourg,Murten/Morat,3285,Europe/Zurich,1,46.92827,7.11715,2
2001:200::,2001:200:101:ffff:ffff:ffff:ffff:ffff,AS,JP,Japan,Kanagawa,Fujisawa,252-0888,Asia/Tokyo,0,35.34926,139.47666,2
2001:200:102::,2001:200:104:ffff:ffff:ffff:ffff:ffff,AS,JP,Japan,Tokyo,Tokyo,100-2211,Asia/Tokyo,0,35.6895,139.69171,2
2001:200:105::,2001:200:11f:ffff:ffff:ffff:ffff:ffff,AS,JP,Japan,Kanagawa,Fujisawa,252-0888,Asia/Tokyo,0,35.34926,139.47666,2
2001:200:120::,2001:200:122:ffff:ffff:ffff:ffff:ffff,AS,JP,Japan,Tokyo,Tokyo,100-2211,Asia/Tokyo,0,35.6895,139.69171,2
2001:200:123::,2001:200:123:ffff:ffff:ffff:ffff:ffff,AS,JP,Japan,Kanagawa,Fujisawa,252-0888,Asia/Tokyo,0,35.34926,139.47666,2
2001:200:124::,2001:200:129:ffff:ffff:ffff:ffff:ffff,AS,JP,Japan,Tokyo,Tokyo,100-2211,Asia/Tokyo,0,35.6895,139.69171,2
2001:200:12a::,2001:200:12a:ffff:ffff:ffff:ffff:ffff,AS,JP,Japan,Kanagawa,Fujisawa,252-0888,Asia/Tokyo,0,35.34926,139.47666,2
2001:200:12b::,2001:200:130:ffff:ffff:ffff:ffff:ffff,AS,JP,Japan,Tokyo,Tokyo,100-2211,Asia/Tokyo,0,35.6895,139.69171,2
2001:200:131::,2001:200:131:ffff:ffff:ffff:ffff:ffff,AS,JP,Japan,Kanagawa,Fujisawa,252-0888,Asia/Tokyo,0,35.34926,139.47666,2
2001:200:132::,2001:200:134:ffff:ffff:ffff:ffff:ffff,AS,JP,Japan,Tokyo,Tokyo,100-2211,Asia/Tokyo,0,35.6895,139.69171,2
2001:200:135::,2001:200:135:ffff:ffff:ffff:ffff:ffff,NA,US,United States,Illinois,Chicago,60666,America/Chicago,1,41.85003,-87.65005,2
2001:200:136::,2001:200:136:ffff:ffff:ffff:ffff:ffff,AS,JP,Japan,Tokyo,Tokyo,100-2211,Asia/Tokyo,0,35.6895,139.69171,2
2001:200:137::,2001:200:13c:ffff:ffff:ffff:ffff:ffff,AS,JP,Japan,Tokyo,Tokyo,100-2211,Asia/Tokyo,0,35.6895,139.69171,2
2001:200:13d::,2001:200:13d:ffff:ffff:ffff:ffff:ffff,AS,JP,Japan,Kanagawa,Fujisawa,252-0888,Asia/Tokyo,0,35.34926,139.47666,2
2001:200:13e::,2001:200:13e:ffff:ffff:ffff:ffff:ffff,AS,JP,Japan,Kanagawa,Fujisawa,252-0888,Asia/Tokyo,0,35.34926,139.47666,2
2001:200:13f::,2001:200:13f:ffff:ffff:ffff:ffff:ffff,AS,JP,Japan,Kanagawa,Fujisawa,252-0888,Asia/Tokyo,0,35.34926,139.47666,2
2001:200:140::,2001:200:140:ffff:ffff:ffff:ffff:ffff,AS,JP,Japan,Kanagawa,Fujisawa,252-0888,Asia/Tokyo,0,35.34926,139.47666,2
2001:200:141::,2001:200:141:ffff:ffff:ffff:ffff:ffff,AS,JP,Japan,Ishikawa,Tsurugi-asahimachi,929-0296,Asia/Tokyo,0,36.45,136.63333,2
2001:200:142::,2001:200:142:ffff:ffff:ffff:ffff:ffff,AS,JP,Japan,Tokyo,Tokyo,100-2211,Asia/Tokyo,0,35.6895,139.69171,2
2001:200:143::,2001:200:14f:ffff:ffff:ffff:ffff:ffff,AS,JP,Japan,Kanagawa,Fujisawa,252-0888,Asia/Tokyo,0,35.34926,139.47666,2
2001:200:150::,2001:200:150:ffff:ffff:ffff:ffff:ffff,AS,JP,Japan,Tokyo,Tokyo,100-2211,Asia/Tokyo,0,35.6895,139.69171,2
2001:200:151::,2001:200:15f:ffff:ffff:ffff:ffff:ffff,AS,JP,Japan,Kanagawa,Fujisawa,252-0888,Asia/Tokyo,0,35.34926,139.47666,2
2001:200:160::,2001:200:163:ffff:ffff:ffff:ffff:ffff,AS,JP,Japan,Tokyo,Tokyo,100-2211,Asia/Tokyo,0,35.6895,139.69171,2
2001:200:164::,2001:200:164:ffff:ffff:ffff:ffff:ffff,AS,JP,Japan,Kanagawa,Fujisawa,252-0888,Asia/Tokyo,0,35.34926,139.47666,2
2001:200:165::,2001:200:168:ffff:ffff:ffff:ffff:ffff,AS,JP,Japan,Tokyo,Tokyo,100-2211,Asia/Tokyo,0,35.6895,139.69171,2
2001:200:169::,2001:200:169:ffff:ffff:ffff:ffff:ffff,AS,JP,Japan,Kanagawa,Fujisawa,252-0888,Asia/Tokyo,0,35.34926,139.47666,2
2001:200:16a::,2001:200:16a:ffff:ffff:ffff:ffff:ffff,AS,JP,Japan,Tokyo,Tokyo,100-2211,Asia/Tokyo,0,35.6895,139.69171,2
2001:200:16b::,2001:200:177:ffff:ffff:ffff:ffff:ffff,AS,JP,Japan,Kanagawa,Fujisawa,252-0888,Asia/Tokyo,0,35.34926,139.47666,2
2001:200:178::,2001:200:179:ffff:ffff:ffff:ffff:ffff,AS,JP,Japan,Tokyo,Tokyo,100-2211,Asia/Tokyo,0,35.6895,139.69171,2
2001:200:17a::,2001:200:17b:ffff:ffff:ffff:ffff:ffff,NA,US,United States,California,San Jose,95196,America/Los_Angeles,1,37.33939,-121.89496,2
2001:200:17c::,2001:200:17f:ffff:ffff:ffff:ffff:ffff,AS,JP,Japan,Kanagawa,Fujisawa,252-0888,Asia/Tokyo,0,35.34926,139.47666,2
2001:200:180::,2001:200:180:ffff:ffff:ffff:ffff:ffff,AS,JP,Japan,Kanagawa,Den’enchōfu,146-8677,Asia/Tokyo,0,35.59548,139.66535,2
2001:200:181::,2001:200:185:ffff:ffff:ffff:ffff:ffff,AS,JP,Japan,Tokyo,Tokyo,100-2211,Asia/Tokyo,0,35.6895,139.69171,2
2001:200:186::,2001:200:18f:ffff:ffff:ffff:ffff:ffff,AS,JP,Japan,Kanagawa,Fujisawa,252-0888,Asia/Tokyo,0,35.34926,139.47666,2
2001:200:190::,2001:200:190:ffff:ffff:ffff:ffff:ffff,AS,JP,Japan,Tokyo,Tokyo,100-2211,Asia/Tokyo,0,35.6895,139.69171,2
2001:200:191::,2001:200:1af:ffff:ffff:ffff:ffff:ffff,AS,JP,Japan,Kanagawa,Fujisawa,252-0888,Asia/Tokyo,0,35.34926,139.47666,2
2001:200:1b0::,2001:200:1b0:ffff:ffff:ffff:ffff:ffff,AS,JP,Japan,Tokyo,Tokyo,100-2211,Asia/Tokyo,0,35.6895,139.69171,2
2001:200:1b1::,2001:200:1b1:ffff:ffff:ffff:ffff:ffff,AS,JP,Japan,Kanagawa,Kawasaki,216-8631,Asia/Tokyo,0,35.52056,139.71722,2
2001:200:1b2::,2001:200:1b7:ffff:ffff:ffff:ffff:ffff,AS,JP,Japan,Kanagawa,Fujisawa,252-0888,Asia/Tokyo,0,35.34926,139.47666,2
2001:200:1b8::,2001:200:1bc:ffff:ffff:ffff:ffff:ffff,AS,JP,Japan,Tokyo,Tokyo,100-2211,Asia/Tokyo,0,35.6895,139.69171,2
2001:200:1bd::,2001:200:1c0:ffff:ffff:ffff:ffff:ffff,AS,JP,Japan,Kanagawa,Fujisawa,252-0888,Asia/Tokyo,0,35.34926,139.47666,2
2001:200:1c1::,2001:200:1c1:ffff:ffff:ffff:ffff:ffff,AS,JP,Japan,Tokyo,Tokyo,100-2211,Asia/Tokyo,0,35.6895,139.69171,2
2001:200:1c2::,2001:200:1c2:ffff:ffff:ffff:ffff:ffff,AS,JP,Japan,Kanagawa,Fujisawa,252-0888,Asia/Tokyo,0,35.34926,139.47666,2
2001:200:1c3::,2001:200:1c7:ffff:ffff:ffff:ffff:ffff,AS,JP,Japan,Kanagawa,Fujisawa,252-0888,Asia/Tokyo,0,35.34926,139.47666,2
2001:200:1c8::,2001:200:1c8:ffff:ffff:ffff:ffff:ffff,AS,JP,Japan,Ibaraki,Tsukuba (1 Chome),,Asia/Tokyo,0,36.1068,140.102,2
2001:200:1c9::,2001:200:1cf:ffff:ffff:ffff:ffff:ffff,AS,JP,Japan,Kanagawa,Fujisawa,252-0888,Asia/Tokyo,0,35.34926,139.47666,2
2001:200:1d0::,2001:200:1d2:ffff:ffff:ffff:ffff:ffff,AS,JP,Japan,Tokyo,Tokyo,100-2211,Asia/Tokyo,0,35.6895,139.69171,2
2001:200:1d3::,2001:200:1d7:ffff:ffff:ffff:ffff:ffff,AS,JP,Japan,Kanagawa,Fujisawa,252-0888,Asia/Tokyo,0,35.34926,139.47666,2
2001:200:1d8::,2001:200:1d8:ffff:ffff:ffff:ffff:ffff,AS,JP,Japan,Tokyo,Tokyo,100-2211,Asia/Tokyo,0,35.6895,139.69171,2
2001:200:1d9::,2001:200:1d9:ffff:ffff:ffff:ffff:ffff,AS,JP,Japan,Kanagawa,Fujisawa,252-0888,Asia/Tokyo,0,35.34926,139.47666,2
2001:200:1da::,2001:200:1ff:ffff:ffff:ffff:ffff:ffff,AS,JP,Japan,Kanagawa,Fujisawa,252-0888,Asia/Tokyo,0,35.34926,139.47666,2
2001:200:200::,2001:200:2ff:ffff:ffff:ffff:ffff:ffff,AS,JP,Japan,Tokyo,Tokyo,100-2211,Asia/Tokyo,0,35.6895,139.69171,2
2001:200:300::,2001:200:300:ffff:ffff:ffff:ffff:ffff,AS,JP,Japan,Kanagawa,Yokohama,,Asia/Tokyo,0,35.5364,139.529,2
2001:200:301::,2001:200:301:ffff:ffff:ffff:ffff:ffff,AS,JP,Japan,Tokyo,Tokyo,100-2211,Asia/Tokyo,0,35.6895,139.69171,2
2001:200:302::,2001:200:33f:ffff:ffff:ffff:ffff:ffff,AS,JP,Japan,Kanagawa,Yokohama,,Asia/Tokyo,0,35.5364,139.529,2
2001:200:340::,2001:200:341:ffff:ffff:ffff:ffff:ffff,AS,JP,Japan,Tokyo,Tokyo,100-2211,Asia/Tokyo,0,35.6895,139.69171,2
2001:200:342::,2001:200:3ff:ffff:ffff:ffff:ffff:ffff,AS,JP,Japan,Kanagawa,Yokohama,,Asia/Tokyo,0,35.5364,139.529,2
2001:200:400::,2001:200:4ff:ffff:ffff:ffff:ffff:ffff,AS,JP,Japan,Tokyo,Tokyo,100-2211,Asia/Tokyo,0,35.6895,139.69171,2
2001:200:500::,2001:200:5ff:ffff:ffff:ffff:ffff:ffff,AS,JP,Japan,Toyama,Toyama,939-8650,Asia/Tokyo,0,36.7,137.21667,2
2001:200:600::,2001:200:601:ffff:ffff:ffff:ffff:ffff,AS,JP,Japan,Saitama,Yono,338-0014,Asia/Tokyo,0,35.88333,139.63333,2
2001:200:602::,2001:200:603:ffff:ffff:ffff:ffff:ffff,AS,JP,Japan,Tokyo,Tokyo,100-2211,Asia/Tokyo,0,35.6895,139.69171,2
2001:200:604::,2001:200:605:ffff:ffff:ffff:ffff:ffff,AS,JP,Japan,Saitama,Yono,338-0014,Asia/Tokyo,0,35.88333,139.63333,2
2001:200:606::,2001:200:606:ffff:ffff:ffff:ffff:ffff,AS,JP,Japan,Tokyo,Tokyo,100-2211,Asia/Tokyo,0,35.6895,139.69171,2
2001:200:607::,2001:200:6ff:ffff:ffff:ffff:ffff:ffff,AS,JP,Japan,Saitama,Yono,338-0014,Asia/Tokyo,0,35.88333,139.63333,2
2001:200:700::,2001:200:8ff:ffff:ffff:ffff:ffff:ffff,AS,JP,Japan,Kanagawa,Fujisawa,252-0888,Asia/Tokyo,0,35.34926,139.47666,2
2001:200:900::,2001:200:9ff:ffff:ffff:ffff:ffff:ffff,AS,JP,Japan,Kanagawa,Den’enchōfu,146-8677,Asia/Tokyo,0,35.59548,139.66535,2
2001:200:a00::,2001:200:aff:ffff:ffff:ffff:ffff:ffff,AS,JP,Japan,Tokyo,Tokyo,100-2211,Asia/Tokyo,0,35.6895,139.69171,2
2001:200:b00::,2001:200:b00:ffff:ffff:ffff:ffff:ffff,AS,JP,Japan,Kanagawa,Fujisawa,252-0888,Asia/Tokyo,0,35.34926,139.47666,2
2001:200:b01::,2001:200:b01:ffff:ffff:ffff:ffff:ffff,AS,JP,Japan,Tokyo,Tokyo,100-2211,Asia/Tokyo,0,35.6895,139.69171,2
2001:200:b02::,2001:200:b03:ffff:ffff:ffff:ffff:ffff,AS,JP,Japan,Kanagawa,Fujisawa,252-0888,Asia/Tokyo,0,35.34926,139.47666,2
2001:200:b04::,2001:200:b04:ffff:ffff:ffff:ffff:ffff,AS,JP,Japan,Tokyo,Tokyo,100-2211,Asia/Tokyo,0,35.6895,139.69171,2
2001:200:b05::,2001:200:bff:ffff:ffff:ffff:ffff:ffff,AS,JP,Japan,Kanagawa,Fujisawa,252-0888,Asia/Tokyo,0,35.34926,139.47666,2
2001:200:c00::,2001:200:cff:ffff:ffff:ffff:ffff:ffff,AS,JP,Japan,Tokyo,Tokyo,100-2211,Asia/Tokyo,0,35.6895,139.69171,2
2001:200:d00::,2001:200:dff:ffff:ffff:ffff:ffff:ffff,AS,JP,Japan,Kanagawa,Fujisawa,252-0888,Asia/Tokyo,0,35.34926,139.47666,2
2001:200:e00::,2001:200:eff:ffff:ffff:ffff:ffff:ffff,AS,JP,Japan,Kanagawa,Fujisawa,252-0888,Asia/Tokyo,0,35.34926,139.47666,2
2001:200:f00::,2001:200:7fff:ffff:ffff:ffff:ffff:ffff,AS,JP,Japan,Kanagawa,Fujisawa,252-0888,Asia/Tokyo,0,35.34926,139.47666,2
2001:200:8000::,2001:200:9fff:ffff:ffff:ffff:ffff:ffff,AS,JP,Japan,Kanagawa,Fujisawa,252-0888,Asia/Tokyo,0,35.34926,139.47666,2
2001:200:a000::,2001:200:bfff:ffff:ffff:ffff:ffff:ffff,AS,JP,Japan,Tokyo,Tokyo,100-2211,Asia/Tokyo,0,35.6895,139.69171,2
2001:200:c000::,2001:200:ffff:ffff:ffff:ffff:ffff:ffff,AS,JP,Japan,Kanagawa,Den’enchōfu,146-8677,Asia/Tokyo,0,35.59548,139.66535,2
2001:201::,2001:203:ffff:ffff:ffff:ffff:ffff:ffff,OC,AU,Australia,New South Wales,Sydney,1001,Australia/Sydney,0,-33.86785,151.20732,2
2001:204::,2001:207:ffff:ffff:ffff:ffff:ffff:ffff,OC,AU,Australia,Queensland,Brisbane,4000,Australia/Brisbane,0,-27.46794,153.02809,2
2001:208::,2001:208:ffff:ffff:ffff:ffff:ffff:ffff,AS,SG,Singapore,,Bukit Merah Estate,151123,Asia/Singapore,0,1.28417,103.82306,2
2001:209::,2001:217:ffff:ffff:ffff:ffff:ffff:ffff,OC,AU,Australia,Queensland,Brisbane,4000,Australia/Brisbane,0,-27.46794,153.02809,2
2001:218::,2001:218:414:ffff:ffff:ffff:ffff:ffff,AS,JP,Japan,Tokyo,Tokyo,100-2211,Asia/Tokyo,0,35.6895,139.69171,2
2001:218:415::,2001:218:415:ffff:ffff:ffff:ffff:ffff,AS,JP,Japan,Gifu,Hashima,503-0129,Asia/Tokyo,0,35.329,136.68051,2
2001:218:416::,2001:218:41e:ffff:ffff:ffff:ffff:ffff,AS,JP,Japan,Tokyo,Tokyo,100-2211,Asia/Tokyo,0,35.6895,139.69171,2
2001:218:41f::,2001:218:41f:ffff:ffff:ffff:ffff:ffff,AS,JP,Japan,Mie,Kuwana,511-8798,Asia/Tokyo,0,35.05192,136.66958,2
2001:218:420::,2001:218:420:ffff:ffff:ffff:ffff:ffff,AS,JP,Japan,Tokyo,Asakusa,111-8798,Asia/Tokyo,0,35.71691,139.79575,2
2001:218:421::,2001:218:42f:ffff:ffff:ffff:ffff:ffff,AS,JP,Japan,Tokyo,Tokyo,100-2211,Asia/Tokyo,0,35.6895,139.69171,2
2001:218:430::,2001:218:430:ffff:ffff:ffff:ffff:ffff,AS,JP,Japan,Tottori,Tottori-shi (3 Chome),,Asia/Tokyo,0,35.485,134.238,2
2001:218:431::,2001:218:45a:ffff:ffff:ffff:ffff:ffff,AS,JP,Japan,Tokyo,Tokyo,100-2211,Asia/Tokyo,0,35.6895,139.69171,2
2001:218:45b::,2001:218:45b:ffff:ffff:ffff:ffff:ffff,AS,JP,Japan,Fukui,Fukui-shi,919-0373,Asia/Tokyo,0,36.06443,136.22257,2
2001:218:45c::,2001:218:45c:ffff:ffff:ffff:ffff:ffff,AS,JP,Japan,Tokyo,Tokyo,100-2211,Asia/Tokyo,0,35.6895,139.69171,2
2001:218:45d::,2001:218:486:ffff:ffff:ffff:ffff:ffff,AS,JP,Japan,Tokyo,Tokyo,100-2211,Asia/Tokyo,0,35.6895,139.69171,2
2001:218:487::,2001:218:487:ffff:ffff:ffff:ffff:ffff,AS,JP,Japan,Tokyo,Chōfu,182-8686,Asia/Tokyo,0,35.65924,139.54837,2
2001:218:488::,2001:218:4b6:ffff:ffff:ffff:ffff:ffff,AS,JP,Japan,Tokyo,Tokyo,100-2211,Asia/Tokyo,0,35.6895,139.69171,2
2001:218:4b7::,2001:218:4b7:ffff:ffff:ffff:ffff:ffff,AS,JP,Japan,Kanagawa,Yokohama,247-8730,Asia/Tokyo,0,35.43333,139.65,2
2001:218:4b8::,2001:218:4c2:ffff:ffff:ffff:ffff:ffff,AS,JP,Japan,Tokyo,Tokyo,100-2211,Asia/Tokyo,0,35.6895,139.69171,2
2001:218:4c3::,2001:218:4c3:ffff:ffff:ffff:ffff:ffff,AS,JP,Japan,Tokyo,Akihabara,174-8740,Asia/Tokyo,0,35.69848,139.77253,2
2001:218:4c4::,2001:218:4d7:ffff:ffff:ffff:ffff:ffff,AS,JP,Japan,Tokyo,Tokyo,100-2211,Asia/Tokyo,0,35.6895,139.69171,2
2001:218:4d8::,2001:218:4d8:ffff:ffff:ffff:ffff:ffff,AS,JP,Japan,Tokyo,Tokyo,100-2211,Asia/Tokyo,0,35.6895,139.69171,2
2001:218:4d9::,2001:218:4de:ffff:ffff:ffff:ffff:ffff,AS,JP,Japan,Tokyo,Tokyo,100-2211,Asia/Tokyo,0,35.6895,139.69171,2
2001:218:4df::,2001:218:4df:ffff:ffff:ffff:ffff:ffff,AS,JP,Japan,Aichi,Nagoya,460-0032,Asia/Tokyo,0,35.18147,136.90641,2
2001:218:4e0::,2001:218:4e7:ffff:ffff:ffff:ffff:ffff,AS,JP,Japan,Tokyo,Tokyo,100-2211,Asia/Tokyo,0,35.6895,139.69171,2
2001:218:4e8::,2001:218:4e8:ffff:ffff:ffff:ffff:ffff,AS,JP,Japan,Kanagawa,Yokohama,247-8730,Asia/Tokyo,0,35.43333,139.65,2
2001:218:4e9::,2001:218:1f00:ffff:ffff:ffff:ffff:ffff,AS,JP,Japan,Tokyo,Tokyo,100-2211,Asia/Tokyo,0,35.6895,139.69171,2
2001:218:1f01::,2001:218:1f01:ffff:ffff:ffff:ffff:ffff,AS,JP,Japan,Tokyo,Tokyo,100-2211,Asia/Tokyo,0,35.6895,139.69171,2
2001:218:1f02::,2001:218:2000:c:ffff:ffff:ffff:ffff,AS,JP,Japan,Tokyo,Tokyo,100-2211,Asia/Tokyo,0,35.6895,139.69171,2
2001:218:2000:d::,2001:218:2000:11:ffff:ffff:ffff:ffff,AS,JP,Japan,Ōsaka,Osaka,531-6190,Asia/Tokyo,0,34.69379,135.50107,2
2001:218:2000:12::,2001:218:3003:ffff:ffff:ffff:ffff:ffff,AS,JP,Japan,Tokyo,Tokyo,100-2211,Asia/Tokyo,0,35.6895,139.69171,2
2001:218:3004::,2001:218:3004:ffff:ffff:ffff:ffff:ffff,AS,JP,Japan,Ōsaka,Osaka,531-6190,Asia/Tokyo,0,34.69379,135.50107,2
2001:218:3005::,2001:218:4000:ffff:ffff:ffff:ffff:ffff,AS,JP,Japan,Tokyo,Tokyo,100-2211,Asia/Tokyo,0,35.6895,139.69171,2
2001:218:4001::,2001:218:4001:0:ffff:ffff:ffff:ffff,AS,SG,Singapore,,Ang Mo Kio New Town,560629,Asia/Singapore,0,1.38028,103.83972,2
2001:218:4001:1::,2001:218:ffff:ffff:ffff:ffff:ffff:ffff,AS,JP,Japan,Tokyo,Tokyo,100-2211,Asia/Tokyo,0,35.6895,139.69171,2
2001:219::,2001:219:ffff:ffff:ffff:ffff:ffff:ffff,OC,AU,Australia,New South Wales,Sydney,1001,Australia/Sydney,0,-33.86785,151.20732,2
2001:21a::,2001:21f:ffff:ffff:ffff:ffff:ffff:ffff,OC,AU,Australia,Queensland,Brisbane,4000,Australia/Brisbane,0,-27.46794,153.02809,2
2001:220::,2001:220:ffff:ffff:ffff:ffff:ffff:ffff,AS,KR,South Korea,Gyeonggi-do,Seongnam-si (Buljeong-ro),,Asia/Seoul,0,37.3638,127.122,2
2001:221::,2001:22f:ffff:ffff:ffff:ffff:ffff:ffff,OC,AU,Australia,New South Wales,Sydney,1001,Australia/Sydney,0,-33.86785,151.20732,2
2001:230::,2001:230:ffff:ffff:ffff:ffff:ffff:ffff,AS,KR,South Korea,Daejeon,Daejeon,35242,Asia/Seoul,0,36.34913,127.38493,2
2001:231::,2001:23f:ffff:ffff:ffff:ffff:ffff:ffff,OC,AU,Australia,Queensland,Brisbane,4000,Australia/Brisbane,0,-27.46794,153.02809,2
2001:240::,2001:240:1bb:ffff:ffff:ffff:ffff:ffff,AS,JP,Japan,Tokyo,Tokyo,100-2211,Asia/Tokyo,0,35.6895,139.69171,2
2001:240:1bc::,2001:240:1bc:ffff:ffff:ffff:ffff:ffff,AS,JP,Japan,Tokyo,Nakano,165-8780,Asia/Tokyo,0,35.70449,139.66946,2
2001:240:1bd::,2001:240:202c:ffff:ffff:ffff:ffff:ffff,AS,JP,Japan,Tokyo,Tokyo,100-2211,Asia/Tokyo,0,35.6895,139.69171,2
2001:240:202d::,2001:240:202d:ffff:ffff:ffff:ffff:ffff,AS,JP,Japan,Kanagawa,Fujisawa,252-0888,Asia/Tokyo,0,35.34926,139.47666,2
2001:240:202e::,2001:240:2188:ffff:ffff:ffff:ffff:ffff,AS,JP,Japan,Tokyo,Tokyo,100-2211,Asia/Tokyo,0,35.6895,139.69171,2
2001:240:2189::,2001:240:2189:ffff:ffff:ffff:ffff:ffff,AS,JP,Japan,Hokkaido,Iwamizawa,079-0183,Asia/Tokyo,0,43.20028,141.75972,2
2001:240:218a::,2001:240:218a:ffff:ffff:ffff:ffff:ffff,AS,JP,Japan,Hokkaido,Ikeda,089-0602,Asia/Tokyo,0,42.92139,143.45194,2
2001:240:218b::,2001:240:218b:ffff:ffff:ffff:ffff:ffff,AS,JP,Japan,Tokyo,Tokyo,100-2211,Asia/Tokyo,0,35.6895,139.69171,2
2001:240:218c::,2001:240:218c:ffff:ffff:ffff:ffff:ffff,AS,JP,Japan,Chiba,Katori-shi,289-0492,Asia/Tokyo,0,35.89767,140.49943,2
2001:240:218d::,2001:240:2193:ffff:ffff:ffff:ffff:ffff,AS,JP,Japan,Tokyo,Tokyo,100-2211,Asia/Tokyo,0,35.6895,139.69171,2
2001:240:2194::,2001:240:2194:ffff:ffff:ffff:ffff:ffff,AS,JP,Japan,Tokyo,Akihabara,174-8740,Asia/Tokyo,0,35.69848,139.77253,2
2001:240:2195::,2001:240:219a:ffff:ffff:ffff:ffff:ffff,AS,JP,Japan,Tokyo,Tokyo,100-2211,Asia/Tokyo,0,35.6895,139.69171,2
2001:240:219b::,2001:240:219b:ffff:ffff:ffff:ffff:ffff,AS,JP,Japan,Tokyo,Akihabara,174-8740,Asia/Tokyo,0,35.69848,139.77253,2
2001:240:219c::,2001:240:21c6:ffff:ffff:ffff:ffff:ffff,AS,JP,Japan,Tokyo,Tokyo,100-2211,Asia/Tokyo,0,35.6895,139.69171,2
2001:240:21c7::,2001:240:21c7:ffff:ffff:ffff:ffff:ffff,AS,JP,Japan,Shizuoka,Shizuoka,424-8782,Asia/Tokyo,0,34.98333,138.38333,2
2001:240:21c8::,2001:240:2401:fff:ffff:ffff:ffff:ffff,AS,JP,Japan,Tokyo,Tokyo,100-2211,Asia/Tokyo,0,35.6895,139.69171,2
2001:240:2401:1000::,2001:240:2401:ffff:ffff:ffff:ffff:ffff,AS,JP,Japan,Ōsaka,Higashi-ōsaka,630-0272,Asia/Tokyo,0,34.66667,135.58333,2
2001:240:2402::,2001:240:2402:ffff:ffff:ffff:ffff:ffff,AS,JP,Japan,Tokyo,Tokyo,100-2211,Asia/Tokyo,0,35.6895,139.69171,2
2001:240:2403::,2001:240:2403:ffff:ffff:ffff:ffff:ffff,AS,JP,Japan,Hokkaido,Shimo-furano,079-2133,Asia/Tokyo,0,43.35,142.38333,2
2001:240:2404::,2001:240:2409:ffff:ffff:ffff:ffff:ffff,AS,JP,Japan,Tokyo,Tokyo,100-2211,Asia/Tokyo,0,35.6895,139.69171,2
2001:240:240a::,2001:240:240a:ffff:ffff:ffff:ffff:ffff,AS,JP,Japan,Saitama,Niiza,352-8666,Asia/Tokyo,0,35.82088,139.55791,2
2001:240:240b::,2001:240:240c:1fff:ffff:ffff:ffff:ffff,AS,JP,Japan,Tokyo,Tokyo,100-2211,Asia/Tokyo,0,35.6895,139.69171,2
2001:240:240c:2000::,2001:240:240c:efff:ffff:ffff:ffff:ffff,AS,JP,Japan,Tokyo,Fuchū,183-8707,Asia/Tokyo,0,35.67452,139.48216,2
2001:240:240c:f000::,2001:240:2411:22ff:ffff:ffff:ffff:ffff,AS,JP,Japan,Tokyo,Tokyo,100-2211,Asia/Tokyo,0,35.6895,139.69171,2
2001:240:2411:2300::,2001:240:2411:ffff:ffff:ffff:ffff:ffff,AS,JP,Japan,Tokyo,Fuchū,183-8707,Asia/Tokyo,0,35.67452,139.48216,2
2001:240:2412::,2001:240:2412:f8ff:ffff:ffff:ffff:ffff,AS,JP,Japan,Tokyo,Nakano,165-8780,Asia/Tokyo,0,35.70449,139.66946,2
2001:240:2412:f900::,2001:240:241a:2ff:ffff:ffff:ffff:ffff,AS,JP,Japan,Tokyo,Tokyo,100-2211,Asia/Tokyo,0,35.6895,139.69171,2
2001:240:241a:300::,2001:240:241a:b8ff:ffff:ffff:ffff:ffff,AS,JP,Japan,Shizuoka,Hamamatsu,435-0055,Asia/Tokyo,0,34.7,137.73333,2
2001:240:241a:b900::,2001:240:241b:ffff:ffff:ffff:ffff:ffff,AS,JP,Japan,Tokyo,Tokyo,100-2211,Asia/Tokyo,0,35.6895,139.69171,2
2001:240:241c::,2001:240:241c:ffff:ffff:ffff:ffff:ffff,AS,JP,Japan,Niigata,Jōetsu,949-3565,Asia/Tokyo,0,37.14828,138.23642,2
2001:240:241d::,2001:240:241e:9fff:ffff:ffff:ffff:ffff,AS,JP,Japan,Tokyo,Tokyo,100-2211,Asia/Tokyo,0,35.6895,139.69171,2
2001:240:241e:a000::,2001:240:241e:ffff:ffff:ffff:ffff:ffff,AS,JP,Japan,Niigata,Jōetsu,949-3565,Asia/Tokyo,0,37.14828,138.23642,2
2001:240:241f::,2001:240:241f:ffff:ffff:ffff:ffff:ffff,AS,JP,Japan,Kagoshima,Kirishima,899-6604,Asia/Tokyo,0,31.74087,130.76288,2
2001:240:2420::,2001:240:2423:ffff:ffff:ffff:ffff:ffff,AS,JP,Japan,Tokyo,Tokyo,100-2211,Asia/Tokyo,0,35.6895,139.69171,2
2001:240:2424::,2001:240:2424:ffff:ffff:ffff:ffff:ffff,AS,JP,Japan,Nagano,Ina,399-4593,Asia/Tokyo,0,35.82756,137.95378,2
2001:240:2425::,2001:240:2428:125f:ffff:ffff:ffff:ffff,AS,JP,Japan,Tokyo,Tokyo,100-2211,Asia/Tokyo,0,35.6895,139.69171,2
2001:240:2428:1260::,2001:240:2428:fd3f:ffff:ffff:ffff:ffff,AS,JP,Japan,Aichi,Ichinomiya,494-8686,Asia/Tokyo,0,35.3,136.8,2
2001:240:2428:fd40::,2001:240:242a:2ff:ffff:ffff:ffff:ffff,AS,JP,Japan,Tokyo,Tokyo,100-2211,Asia/Tokyo,0,35.6895,139.69171,2
2001:240:242a:300::,2001:240:242a:ffff:ffff:ffff:ffff:ffff,AS,JP,Japan,Saitama,Koshigaya,343-8601,Asia/Tokyo,0,35.89035,139.78916,2
2001:240:242b::,2001:240:242b:ffff:ffff:ffff:ffff:ffff,AS,JP,Japan,Hyōgo,Kakogawachō-honmachi,675-8688,Asia/Tokyo,0,34.76943,134.82905,2
2001:240:242c::,2001:240:242d:5ff:ffff:ffff:ffff:ffff,AS,JP,Japan,Tokyo,Tokyo,100-2211,Asia/Tokyo,0,35.6895,139.69171,2
2001:240:242d:600::,2001:240:242d:f7ff:ffff:ffff:ffff:ffff,AS,JP,Japan,Tokyo,Fuchū,183-8707,Asia/Tokyo,0,35.67452,139.48216,2
2001:240:242d:f800::,2001:240:242f:1aaf:ffff:ffff:ffff:ffff,AS,JP,Japan,Tokyo,Tokyo,100-2211,Asia/Tokyo,0,35.6895,139.69171,2
2001:240:242f:1ab0::,2001:240:242f:ffff:ffff:ffff:ffff:ffff,AS,JP,Japan,Tokyo,Fuchū,183-8707,Asia/Tokyo,0,35.67452,139.48216,2
2001:240:2430::,2001:240:2433:ffff:ffff:ffff:ffff:ffff,AS,JP,Japan,Tokyo,Tokyo,100-2211,Asia/Tokyo,0,35.6895,139.69171,2
2001:240:2434::,2001:240:2434:ffff:ffff:ffff:ffff:ffff,AS,JP,Japan,Kagawa,Takamatsu,769-0198,Asia/Tokyo,0,34.33333,134.05,2
2001:240:2435::,2001:240:2435:ffff:ffff:ffff:ffff:ffff,AS,JP,Japan,Hiroshima,Hiroshima,739-1794,Asia/Tokyo,0,34.4,132.45,2
2001:240:2436::,2001:240:2436:ffff:ffff:ffff:ffff:ffff,AS,JP,Japan,Tokyo,Tokyo,100-2211,Asia/Tokyo,0,35.6895,139.69171,2
2001:240:2437::,2001:240:2437:ffff:ffff:ffff:ffff:ffff,AS,JP,Japan,Kagawa,Tonoshō,761-4664,Asia/Tokyo,0,34.48047,134.17017,2
2001:240:2438::,2001:240:2438:ffff:ffff:ffff:ffff:ffff,AS,JP,Japan,Hiroshima,Hiroshima,739-1794,Asia/Tokyo,0,34.4,132.45,2
2001:240:2439::,2001:240:243a:fff:ffff:ffff:ffff:ffff,AS,JP,Japan,Tokyo,Tokyo,100-2211,Asia/Tokyo,0,35.6895,139.69171,2
2001:240:243a:1000::,2001:240:243a:ffff:ffff:ffff:ffff:ffff,AS,JP,Japan,Ishikawa,Kanazawa,921-8798,Asia/Tokyo,0,36.6,136.61667,2
2001:240:243b::,2001:240:243b:ffff:ffff:ffff:ffff:ffff,AS,JP,Japan,Hyōgo,Nishinomiya-hama,669-1251,Asia/Tokyo,0,34.71562,135.33199,2
2001:240:243c::,2001:240:243c:cfff:ffff:ffff:ffff:ffff,AS,JP,Japan,Okinawa,Ginowan,901-2733,Asia/Tokyo,0,26.26265,127.76147,2
2001:240:243c:d000::,2001:240:2460:5ff:ffff:ffff:ffff:ffff,AS,JP,Japan,Tokyo,Tokyo,100-2211,Asia/Tokyo,0,35.6895,139.69171,2
2001:240:2460:600::,2001:240:2460:ffff:ffff:ffff:ffff:ffff,AS,JP,Japan,Kanagawa,Yamato,242-8610,Asia/Tokyo,0,35.47276,139.45101,2
2001:240:2461::,2001:240:2463:2ff:ffff:ffff:ffff:ffff,AS,JP,Japan,Tokyo,Tokyo,100-2211,Asia/Tokyo,0,35.6895,139.69171,2
2001:240:2463:300::,2001:240:2463:ff7f:ffff:ffff:ffff:ffff,AS,JP,Japan,Kanagawa,Yokosuka,240-0196,Asia/Tokyo,0,35.28361,139.66722,2
2001:240:2463:ff80::,2001:240:2465:11ff:ffff:ffff:ffff:ffff,AS,JP,Japan,Tokyo,Tokyo,100-2211,Asia/Tokyo,0,35.6895,139.69171,2
2001:240:2465:1200::,2001:240:2465:fbff:ffff:ffff:ffff:ffff,AS,JP,Japan,Mie,Suzuka,519-0393,Asia/Tokyo,0,34.88333,136.58333,2
2001:240:2465:fc00::,2001:240:2467:7ff:ffff:ffff:ffff:ffff,AS,JP,Japan,Tokyo,Tokyo,100-2211,Asia/Tokyo,0,35.6895,139.69171,2
2001:240:2467:800::,2001:240:2467:ffff:ffff:ffff:ffff:ffff,AS,JP,Japan,Aichi,Kasugai,487-8650,Asia/Tokyo,0,35.24762,136.97229,2
2001:240:2468::,2001:240:2470:8ff:ffff:ffff:ffff:ffff,AS,JP,Japan,Tokyo,Tokyo,100-2211,Asia/Tokyo,0,35.6895,139.69171,2
2001:240:2470:900::,2001:240:2470:f9ff:ffff:ffff:ffff:ffff,AS,JP,Japan,Tochigi,Imaichi,321-2806,Asia/Tokyo,0,36.71667,139.68333,2
2001:240:2470:fa00::,2001:240:2472:1dff:ffff:ffff:ffff:ffff,AS,JP,Japan,Tokyo,Tokyo,100-2211,Asia/Tokyo,0,35.6895,139.69171,2
2001:240:2472:1e00::,2001:240:2472:efff:ffff:ffff:ffff:ffff,AS,JP,Japan,Fukuoka,Iizuka,820-8607,Asia/Tokyo,0,33.63654,130.68678,2
2001:240:2472:f000::,2001:240:2473:ffff:ffff:ffff:ffff:ffff,AS,JP,Japan,Tokyo,Tokyo,100-2211,Asia/Tokyo,0,35.6895,139.69171,2
2001:240:2474::,2001:240:2474:ffff:ffff:ffff:ffff:ffff,AS,JP,Japan,Tokyo,Nakano,165-8780,Asia/Tokyo,0,35.70449,139.66946,2
2001:240:2475::,2001:240:2475:ffff:ffff:ffff:ffff:ffff,AS,JP,Japan,Tochigi,Imaichi,321-2806,Asia/Tokyo,0,36.71667,139.68333,2
2001:240:2476::,2001:240:2476:ffff:ffff:ffff:ffff:ffff,AS,JP,Japan,Chiba,Narashino,275-8666,Asia/Tokyo,0,35.68184,140.04152,2
2001:240:2477::,2001:240:2477:bfff:ffff:ffff:ffff:ffff,AS,JP,Japan,Chiba,Yachiyo,276-8580,Asia/Tokyo,0,35.73531,140.12445,2
2001:240:2477:c000::,2001:240:2479:eff:ffff:ffff:ffff:ffff,AS,JP,Japan,Tokyo,Tokyo,100-2211,Asia/Tokyo,0,35.6895,139.69171,2
2001:240:2479:f00::,2001:240:247a:fff:ffff:ffff:ffff:ffff,AS,JP,Japan,Tokyo,Fuchū,183-8707,Asia/Tokyo,0,35.67452,139.48216,2
2001:240:247a:1000::,2001:240:247b:13ff:ffff:ffff:ffff:ffff,AS,JP,Japan,Tokyo,Tokyo,100-2211,Asia/Tokyo,0,35.6895,139.69171,2
2001:240:247b:1400::,2001:240:247b:ffff:ffff:ffff:ffff:ffff,AS,JP,Japan,Hokkaido,Shimo-furano,079-2133,Asia/Tokyo,0,43.35,142.38333,2
2001:240:247c::,2001:240:247c:ffff:ffff:ffff:ffff:ffff,AS,JP,Japan,Ōsaka,Sakai,590-0987,Asia/Tokyo,0,34.58216,135.46653,2
2001:240:247d::,2001:240:247e:7fff:ffff:ffff:ffff:ffff,AS,JP,Japan,Tokyo,Tokyo,100-2211,Asia/Tokyo,0,35.6895,139.69171,2
2001:240:247e:8000::,2001:240:247e:ffff:ffff:ffff:ffff:ffff,AS,JP,Japan,Tokyo,Kodaira,187-8701,Asia/Tokyo,0,35.72603,139.48508,2
2001:240:247f::,2001:240:2832:ffff:ffff:ffff:ffff:ffff,AS,JP,Japan,Tokyo,Tokyo,100-2211,Asia/Tokyo,0,35.6895,139.69171,2
2001:240:2833::,2001:240:2833:ffff:ffff:ffff:ffff:ffff,AS,JP,Japan,Chiba,Kashiwa,277-8686,Asia/Tokyo,0,35.86224,139.97732,2
2001:240:2834::,2001:240:283c:ffff:ffff:ffff:ffff:ffff,AS,JP,Japan,Tokyo,Tokyo,100-2211,Asia/Tokyo,0,35.6895,139.69171,2
2001:240:283d::,2001:240:283d:ffff:ffff:ffff:ffff:ffff,AS,JP,Japan,Tokyo,Nakano,165-8780,Asia/Tokyo,0,35.70449,139.66946,2
2001:240:283e::,2001:240:2842:ffff:ffff:ffff:ffff:ffff,AS,JP,Japan,Tokyo,Tokyo,100-2211,Asia/Tokyo,0,35.6895,139.69171,2
2001:240:2843::,2001:240:2843:ffff:ffff:ffff:ffff:ffff,AS,JP,Japan,Tokyo,Fuchū,183-8707,Asia/Tokyo,0,35.67452,139.48216,2
2001:240:2844::,2001:240:284e:ffff:ffff:ffff:ffff:ffff,AS,JP,Japan,Tokyo,Tokyo,100-2211,Asia/Tokyo,0,35.6895,139.69171,2
2001:240:284f::,2001:240:284f:ffff:ffff:ffff:ffff:ffff,AS,JP,Japan,Tokyo,Fuchū,183-8707,Asia/Tokyo,0,35.67452,139.48216,2
2001:240:2850::,2001:240:2851:ffff:ffff:ffff:ffff:ffff,AS,JP,Japan,Tokyo,Tokyo,100-2211,Asia/Tokyo,0,35.6895,139.69171,2
2001:240:2852::,2001:240:2852:ffff:ffff:ffff:ffff:ffff,AS,JP,Japan,Kanagawa,Yokosuka,240-0196,Asia/Tokyo,0,35.28361,139.66722,2
2001:240:2853::,2001:240:2853:ffff:ffff:ffff:ffff:ffff,AS,JP,Japan,Tokyo,Tokyo,100-2211,Asia/Tokyo,0,35.6895,139.69171,2
2001:240:2854::,2001:240:2854:ffff:ffff:ffff:ffff:ffff,AS,JP,Japan,Tokyo,Machida,195-8585,Asia/Tokyo,0,35.54028,139.45083,2
2001:240:2855::,2001:240:285f:ffff:ffff:ffff:ffff:ffff,AS,JP,Japan,Tokyo,Tokyo,100-2211,Asia/Tokyo,0,35.6895,139.69171,2
2001:240:2860::,2001:240:2860:ffff:ffff:ffff:ffff:ffff,AS,JP,Japan,Hokkaido,Sapporo,065-8639,Asia/Tokyo,0,43.06667,141.35,2
2001:240:2861::,2001:240:2862:ffff:ffff:ffff:ffff:ffff,AS,JP,Japan,Tokyo,Tokyo,100-2211,Asia/Tokyo,0,35.6895,139.69171,2
2001:240:2863::,2001:240:2863:ffff:ffff:ffff:ffff:ffff,AS,JP,Japan,Fukushima,Motomiya,969-1292,Asia/Tokyo,0,37.51391,140.40063,2
2001:240:2864::,2001:240:286d:ffff:ffff:ffff:ffff:ffff,AS,JP,Japan,Tokyo,Tokyo,100-2211,Asia/Tokyo,0,35.6895,139.69171,2
2001:240:286e::,2001:240:286e:ffff:ffff:ffff:ffff:ffff,AS,JP,Japan,Fukushima,Aizu-Wakamatsu,969-6196,Asia/Tokyo,0,37.49142,139.94546,2
2001:240:286f::,2001:240:289a:ffff:ffff:ffff:ffff:ffff,AS,JP,Japan,Tokyo,Tokyo,100-2211,Asia/Tokyo,0,35.6895,139.69171,2
2001:240:289b::,2001:240:289b:ffff:ffff:ffff:ffff:ffff,AS,JP,Japan,Hyōgo,Toyonaka,561-8577,Asia/Tokyo,0,34.78244,135.46932,2
2001:240:289c::,2001:240:28bf:ffff:ffff:ffff:ffff:ffff,AS,JP,Japan,Tokyo,Tokyo,100-2211,Asia/Tokyo,0,35.6895,139.69171,2
2001:240:28c0::,2001:240:28c0:ffff:ffff:ffff:ffff:ffff,AS,JP,Japan,Aichi,Seto,489-8777,Asia/Tokyo,0,35.23333,137.1,2
2001:240:28c1::,2001:240:28c2:ffff:ffff:ffff:ffff:ffff,AS,JP,Japan,Tokyo,Tokyo,100-2211,Asia/Tokyo,0,35.6895,139.69171,2
2001:240:28c3::,2001:240:28c3:ffff:ffff:ffff:ffff:ffff,AS,JP,Japan,Aichi,Kasugai,487-8650,Asia/Tokyo,0,35.24762,136.97229,2
2001:240:28c4::,2001:240:28e9:ffff:ffff:ffff:ffff:ffff,AS,JP,Japan,Tokyo,Tokyo,100-2211,Asia/Tokyo,0,35.6895,139.69171,2
2001:240:28ea::,2001:240:28ea:ffff:ffff:ffff:ffff:ffff,AS,JP,Japan,Shiga,Ōtsu,520-8666,Asia/Tokyo,0,35,135.86667,2
2001:240:28eb::,2001:240:28ed:ffff:ffff:ffff:ffff:ffff,AS,JP,Japan,Tokyo,Tokyo,100-2211,Asia/Tokyo,0,35.6895,139.69171,2
2001:240:28ee::,2001:240:28ee:ffff:ffff:ffff:ffff:ffff,AS,JP,Japan,Ōsaka,Neyagawa,572-8589,Asia/Tokyo,0,34.76615,135.62759,2
2001:240:28ef::,2001:240:28f5:ffff:ffff:ffff:ffff:ffff,AS,JP,Japan,Tokyo,Tokyo,100-2211,Asia/Tokyo,0,35.6895,139.69171,2
2001:240:28f6::,2001:240:28f6:ffff:ffff:ffff:ffff:ffff,AS,JP,Japan,Tochigi,Utsunomiya,329-1198,Asia/Tokyo,0,36.56667,139.88333,2
2001:240:28f7::,2001:240:2947:ffff:ffff:ffff:ffff:ffff,AS,JP,Japan,Tokyo,Tokyo,100-2211,Asia/Tokyo,0,35.6895,139.69171,2
2001:240:2948::,2001:240:2948:ffff:ffff:ffff:ffff:ffff,AS,JP,Japan,Okayama,Shinjō,717-0201,Asia/Tokyo,0,35.16667,133.56667,2
2001:240:2949::,2001:240:2956:ffff:ffff:ffff:ffff:ffff,AS,JP,Japan,Tokyo,Tokyo,100-2211,Asia/Tokyo,0,35.6895,139.69171,2
2001:240:2957::,2001:240:2957:ffff:ffff:ffff:ffff:ffff,AS,JP,Japan,Saitama,Wako,351-0198,Asia/Tokyo,0,35.78944,139.62333,2
2001:240:2958::,2001:240:2958:ffff:ffff:ffff:ffff:ffff,AS,JP,Japan,Saitama,Honjō,367-8686,Asia/Tokyo,0,36.2378,139.19023,2
2001:240:2959::,2001:240:2963:ffff:ffff:ffff:ffff:ffff,AS,JP,Japan,Tokyo,Tokyo,100-2211,Asia/Tokyo,0,35.6895,139.69171,2
2001:240:2964::,2001:240:2964:ffff:ffff:ffff:ffff:ffff,AS,JP,Japan,Saitama,Sakado,350-0295,Asia/Tokyo,0,35.95694,139.38889,2
2001:240:2965::,2001:240:2975:ffff:ffff:ffff:ffff:ffff,AS,JP,Japan,Tokyo,Tokyo,100-2211,Asia/Tokyo,0,35.6895,139.69171,2
2001:240:2976::,2001:240:2976:ffff:ffff:ffff:ffff:ffff,AS,JP,Japan,Chiba,Kamagaya,273-0197,Asia/Tokyo,0,35.76971,140.00238,2
2001:240:2977::,2001:240:2977:ffff:ffff:ffff:ffff:ffff,AS,JP,Japan,Chiba,Yotsukaidō,284-8555,Asia/Tokyo,0,35.65,140.16667,2
2001:240:2978::,2001:240:297a:ffff:ffff:ffff:ffff:ffff,AS,JP,Japan,Tokyo,Tokyo,100-2211,Asia/Tokyo,0,35.6895,139.69171,2
2001:240:297b::,2001:240:297b:ffff:ffff:ffff:ffff:ffff,AS,JP,Japan,Chiba,Yachiyo,276-8580,Asia/Tokyo,0,35.73531,140.12445,2
2001:240:297c::,2001:240:297d:ffff:ffff:ffff:ffff:ffff,AS,JP,Japan,Tokyo,Tokyo,100-2211,Asia/Tokyo,0,35.6895,139.69171,2
2001:240:297e::,2001:240:297e:ffff:ffff:ffff:ffff:ffff,AS,JP,Japan,Chiba,Matsudo,271-8672,Asia/Tokyo,0,35.77995,139.90144,2
2001:240:297f::,2001:240:2986:ffff:ffff:ffff:ffff:ffff,AS,JP,Japan,Tokyo,Tokyo,100-2211,Asia/Tokyo,0,35.6895,139.69171,2
2001:240:2987::,2001:240:2987:ffff:ffff:ffff:ffff:ffff,AS,JP,Japan,Tokyo,Akihabara,174-8740,Asia/Tokyo,0,35.69848,139.77253,2
2001:240:2988::,2001:240:298b:ffff:ffff:ffff:ffff:ffff,AS,JP,Japan,Tokyo,Tokyo,100-2211,Asia/Tokyo,0,35.6895,139.69171,2
2001:240:298c::,2001:240:298c:ffff:ffff:ffff:ffff:ffff,AS,JP,Japan,Tokyo,Nakano,165-8780,Asia/Tokyo,0,35.70449,139.66946,2
2001:240:298d::,2001:240:298f:ffff:ffff:ffff:ffff:ffff,AS,JP,Japan,Tokyo,Tokyo,100-2211,Asia/Tokyo,0,35.6895,139.69171,2
2001:240:2990::,2001:240:2990:ffff:ffff:ffff:ffff:ffff,AS,JP,Japan,Tokyo,Hino,191-8686,Asia/Tokyo,0,35.67306,139.40028,2
2001:240:2991::,2001:240:2991:ffff:ffff:ffff:ffff:ffff,AS,JP,Japan,Chiba,Matsudo,271-8672,Asia/Tokyo,0,35.77995,139.90144,2
2001:240:2992::,2001:240:2992:ffff:ffff:ffff:ffff:ffff,AS,JP,Japan,Tokyo,Akihabara,174-8740,Asia/Tokyo,0,35.69848,139.77253,2
2001:240:2993::,2001:240:29bd:ffff:ffff:ffff:ffff:ffff,AS,JP,Japan,Tokyo,Tokyo,100-2211,Asia/Tokyo,0,35.6895,139.69171,2
2001:240:29be::,2001:240:29be:ffff:ffff:ffff:ffff:ffff,AS,JP,Japan,Tokyo,Nakano,165-8780,Asia/Tokyo,0,35.70449,139.66946,2
2001:240:29bf::,2001:240:29d2:ffff:ffff:ffff:ffff:ffff,AS,JP,Japan,Tokyo,Tokyo,100-2211,Asia/Tokyo,0,35.6895,139.69171,2
2001:240:29d3::,2001:240:29d3:ffff:ffff:ffff:ffff:ffff,AS,JP,Japan,Kanagawa,Fujisawa,252-0888,Asia/Tokyo,0,35.34926,139.47666,2
2001:240:29d4::,2001:240:29d5:ffff:ffff:ffff:ffff:ffff,AS,JP,Japan,Tokyo,Tokyo,100-2211,Asia/Tokyo,0,35.6895,139.69171,2
2001:240:29d6::,2001:240:29d6:ffff:ffff:ffff:ffff:ffff,AS,JP,Japan,Tokyo,Chōfu,182-8686,Asia/Tokyo,0,35.65924,139.54837,2
2001:240:29d7::,2001:240:29e2:ffff:ffff:ffff:ffff:ffff,AS,JP,Japan,Tokyo,Tokyo,100-2211,Asia/Tokyo,0,35.6895,139.69171,2
2001:240:29e3::,2001:240:29e3:ffff:ffff:ffff:ffff:ffff,AS,JP,Japan,Kanagawa,Fujisawa,252-0888,Asia/Tokyo,0,35.34926,139.47666,2
2001:240:29e4::,2001:240:29e7:ffff:ffff:ffff:ffff:ffff,AS,JP,Japan,Tokyo,Tokyo,100-2211,Asia/Tokyo,0,35.6895,139.69171,2
2001:240:29e8::,2001:240:29e8:ffff:ffff:ffff:ffff:ffff,AS,JP,Japan,Kanagawa,Fujisawa,252-0888,Asia/Tokyo,0,35.34926,139.47666,2
2001:240:29e9::,2001:240:29f7:ffff:ffff:ffff:ffff:ffff,AS,JP,Japan,Tokyo,Tokyo,100-2211,Asia/Tokyo,0,35.6895,139.69171,2
2001:240:29f8::,2001:240:29f8:ffff:ffff:ffff:ffff:ffff,AS,JP,Japan,Aichi,Inazawa,495-8601,Asia/Tokyo,0,35.25,136.78333,2
2001:240:29f9::,2001:240:2a00:ffff:ffff:ffff:ffff:ffff,AS,JP,Japan,Tokyo,Tokyo,100-2211,Asia/Tokyo,0,35.6895,139.69171,2
2001:240:2a01::,2001:240:2a01:ffff:ffff:ffff:ffff:ffff,AS,JP,Japan,Nagano,Miyota,389-0208,Asia/Tokyo,0,36.33656,138.51288,2
2001:240:2a02::,2001:240:2a02:ffff:ffff:ffff:ffff:ffff,AS,JP,Japan,Tokyo,Tokyo,100-2211,Asia/Tokyo,0,35.6895,139.69171,2
2001:240:2a03::,2001:240:2a03:ffff:ffff:ffff:ffff:ffff,AS,JP,Japan,Tochigi,Utsunomiya,329-1198,Asia/Tokyo,0,36.56667,139.88333,2
2001:240:2a04::,2001:240:2a08:ffff:ffff:ffff:ffff:ffff,AS,JP,Japan,Tokyo,Tokyo,100-2211,Asia/Tokyo,0,35.6895,139.69171,2
2001:240:2a09::,2001:240:2a09:ffff:ffff:ffff:ffff:ffff,AS,JP,Japan,Iwate,Ninohe,028-6985,Asia/Tokyo,0,40.29081,141.31334,2
2001:240:2a0a::,2001:240:2a19:ffff:ffff:ffff:ffff:ffff,AS,JP,Japan,Tokyo,Tokyo,100-2211,Asia/Tokyo,0,35.6895,139.69171,2
2001:240:2a1a::,2001:240:2a1a:ffff:ffff:ffff:ffff:ffff,AS,JP,Japan,Shizuoka,Handayama,435-0057,Asia/Tokyo,0,34.77497,137.73774,2
2001:240:2a1b::,2001:240:2a22:ffff:ffff:ffff:ffff:ffff,AS,JP,Japan,Tokyo,Tokyo,100-2211,Asia/Tokyo,0,35.6895,139.69171,2
2001:240:2a23::,2001:240:2a23:ffff:ffff:ffff:ffff:ffff,AS,JP,Japan,Fukui,Ono,912-8686,Asia/Tokyo,0,35.98106,136.48727,2
2001:240:2a24::,2001:240:2a24:ffff:ffff:ffff:ffff:ffff,AS,JP,Japan,Kochi,Nakamura,787-8501,Asia/Tokyo,0,32.98333,132.93333,2
2001:240:2a25::,2001:240:2a2a:ffff:ffff:ffff:ffff:ffff,AS,JP,Japan,Tokyo,Tokyo,100-2211,Asia/Tokyo,0,35.6895,139.69171,2
2001:240:2a2b::,2001:240:2a2b:ffff:ffff:ffff:ffff:ffff,AS,JP,Japan,Hiroshima,Saka,731-4331,Asia/Tokyo,0,34.33333,132.51667,2
2001:240:2a2c::,2001:240:2a2f:ffff:ffff:ffff:ffff:ffff,AS,JP,Japan,Tokyo,Tokyo,100-2211,Asia/Tokyo,0,35.6895,139.69171,2
2001:240:2a30::,2001:240:2a30:ffff:ffff:ffff:ffff:ffff,AS,JP,Japan,Shimane,Izumo,699-0906,Asia/Tokyo,0,35.36667,132.76667,2
2001:240:2a31::,2001:240:2a36:ffff:ffff:ffff:ffff:ffff,AS,JP,Japan,Tokyo,Tokyo,100-2211,Asia/Tokyo,0,35.6895,139.69171,2
2001:240:2a37::,2001:240:2a37:ffff:ffff:ffff:ffff:ffff,AS,JP,Japan,Iwate,Morioka,028-4195,Asia/Tokyo,0,39.7,141.15,2
2001:240:2a38::,2001:240:2a42:ffff:ffff:ffff:ffff:ffff,AS,JP,Japan,Tokyo,Tokyo,100-2211,Asia/Tokyo,0,35.6895,139.69171,2
2001:240:2a43::,2001:240:2a43:ffff:ffff:ffff:ffff:ffff,AS,JP,Japan,Miyagi,Kakuda,981-1596,Asia/Tokyo,0,37.97451,140.77202,2
2001:240:2a44::,2001:240:2a4b:ffff:ffff:ffff:ffff:ffff,AS,JP,Japan,Tokyo,Tokyo,100-2211,Asia/Tokyo,0,35.6895,139.69171,2
2001:240:2a4c::,2001:240:2a4c:ffff:ffff:ffff:ffff:ffff,AS,JP,Japan,Hokkaido,Shiraoi,059-0923,Asia/Tokyo,0,42.55,141.35,2
2001:240:2a4d::,2001:240:2a4d:ffff:ffff:ffff:ffff:ffff,AS,JP,Japan,Tokyo,Tokyo,100-2211,Asia/Tokyo,0,35.6895,139.69171,2
2001:240:2a4e::,2001:240:2a4e:ffff:ffff:ffff:ffff:ffff,AS,JP,Japan,Hokkaido,Ebetsu,069-8585,Asia/Tokyo,0,43.10806,141.55056,2
2001:240:2a4f::,2001:240:2a65:ffff:ffff:ffff:ffff:ffff,AS,JP,Japan,Tokyo,Tokyo,100-2211,Asia/Tokyo,0,35.6895,139.69171,2
2001:240:2a66::,2001:240:2a66:ffff:ffff:ffff:ffff:ffff,AS,JP,Japan,Okayama,Akaiwa,709-0898,Asia/Tokyo,0,34.80986,134.02153,2
2001:240:2a67::,2001:240:2a6a:ffff:ffff:ffff:ffff:ffff,AS,JP,Japan,Tokyo,Tokyo,100-2211,Asia/Tokyo,0,35.6895,139.69171,2
2001:240:2a6b::,2001:240:2a6b:ffff:ffff:ffff:ffff:ffff,AS,JP,Japan,Tokushima,Tokushima,779-3133,Asia/Tokyo,0,34.06667,134.56667,2
2001:240:2a6c::,2001:240:2a6d:ffff:ffff:ffff:ffff:ffff,AS,JP,Japan,Tokyo,Tokyo,100-2211,Asia/Tokyo,0,35.6895,139.69171,2
2001:240:2a6e::,2001:240:2a6e:ffff:ffff:ffff:ffff:ffff,AS,JP,Japan,Toyama,Namerikawa,936-8686,Asia/Tokyo,0,36.75965,137.36215,2
2001:240:2a6f::,2001:240:2a70:ffff:ffff:ffff:ffff:ffff,AS,JP,Japan,Tokyo,Tokyo,100-2211,Asia/Tokyo,0,35.6895,139.69171,2
2001:240:2a71::,2001:240:2a71:ffff:ffff:ffff:ffff:ffff,AS,JP,Japan,Miyazaki,Miyakonojō,889-4602,Asia/Tokyo,0,31.73333,131.06667,2
2001:240:2a72::,2001:240:2a87:ffff:ffff:ffff:ffff:ffff,AS,JP,Japan,Tokyo,Tokyo,100-2211,Asia/Tokyo,0,35.6895,139.69171,2
2001:240:2a88::,2001:240:2a88:ffff:ffff:ffff:ffff:ffff,AS,JP,Japan,Shiga,Nagahama,529-0792,Asia/Tokyo,0,35.38333,136.26667,2
2001:240:2a89::,2001:240:2abd:ffff:ffff:ffff:ffff:ffff,AS,JP,Japan,Tokyo,Tokyo,100-2211,Asia/Tokyo,0,35.6895,139.69171,2
2001:240:2abe::,2001:240:2abe:ffff:ffff:ffff:ffff:ffff,AS,JP,Japan,Kumamoto,Tamana,869-0295,Asia/Tokyo,0,32.94716,130.57446,2
2001:240:2abf::,2001:240:2abf:ffff:ffff:ffff:ffff:ffff,AS,JP,Japan,Fukuoka,Fukuoka,812-0897,Asia/Tokyo,0,33.6,130.41667,2
2001:240:2ac0::,2001:240:2ac0:ffff:ffff:ffff:ffff:ffff,AS,JP,Japan,Ibaraki,Tsuchiura,300-8686,Asia/Tokyo,0,36.09047,140.21047,2
2001:240:2ac1::,2001:240:2ac9:ffff:ffff:ffff:ffff:ffff,AS,JP,Japan,Tokyo,Tokyo,100-2211,Asia/Tokyo,0,35.6895,139.69171,2
2001:240:2aca::,2001:240:2aca:ffff:ffff:ffff:ffff:ffff,AS,JP,Japan,Gunma,Naganohara,377-1412,Asia/Tokyo,0,36.55,138.63333,2
2001:240:2acb::,2001:240:2ad4:ffff:ffff:ffff:ffff:ffff,AS,JP,Japan,Tokyo,Tokyo,100-2211,Asia/Tokyo,0,35.6895,139.69171,2
2001:240:2ad5::,2001:240:2ad5:ffff:ffff:ffff:ffff:ffff,AS,JP,Japan,Wakayama,Kainan,649-0192,Asia/Tokyo,0,34.15166,135.21398,2
2001:240:2ad6::,2001:240:2aec:ffff:ffff:ffff:ffff:ffff,AS,JP,Japan,Tokyo,Tokyo,100-2211,Asia/Tokyo,0,35.6895,139.69171,2
2001:240:2aed::,2001:240:2aed:ffff:ffff:ffff:ffff:ffff,AS,JP,Japan,Aichi,Inazawa,495-8601,Asia/Tokyo,0,35.25,136.78333,2
2001:240:2aee::,2001:240:ffff:ffff:ffff:ffff:ffff:ffff,AS,JP,Japan,Tokyo,Tokyo,100-2211,Asia/Tokyo,0,35.6895,139.69171,2
2001:241::,2001:243:ffff:ffff:ffff:ffff:ffff:ffff,OC,AU,Australia,Queensland,Brisbane,4000,Australia/Brisbane,0,-27.46794,153.02809,2
2001:244::,2001:247:ffff:ffff:ffff:ffff:ffff:ffff,OC,AU,Australia,New South Wales,Sydney,1001,Australia/Sydney,0,-33.86785,151.20732,2
2001:248::,2001:24f:ffff:ffff:ffff:ffff:ffff:ffff,OC,AU,Australia,Queensland,Brisbane,4000,Australia/Brisbane,0,-27.46794,153.02809,2
2001:250::,2001:250:400:ffff:ffff:ffff:ffff:ffff,AS,CN,China,Beijing,Beijing,101100,Asia/Shanghai,0,39.9075,116.39723,2
2001:250:401::,2001:250:408:ffff:ffff:ffff:ffff:ffff,AS,CN,China,Tianjin,Tianjin,300000,Asia/Shanghai,0,39.14222,117.17667,2
2001:250:409::,2001:250:40c:ffff:ffff:ffff:ffff:ffff,AS,CN,China,Beijing,Beijing,101100,Asia/Shanghai,0,39.9075,116.39723,2
2001:250:40d::,2001:250:40e:ffff:ffff:ffff:ffff:ffff,AS,CN,China,Tianjin,Tianjin,300000,Asia/Shanghai,0,39.14222,117.17667,2
2001:250:40f::,2001:250:1000:ffff:ffff:ffff:ffff:ffff,AS,CN,China,Beijing,Beijing,101100,Asia/Shanghai,0,39.9075,116.39723,2
2001:250:1001::,2001:250:1001:ffff:ffff:ffff:ffff:ffff,AS,CN,China,Shaanxi,Xi’an,710000,Asia/Shanghai,0,34.25833,108.92861,2
2001:250:1002::,2001:250:1fff:ffff:ffff:ffff:ffff:ffff,AS,CN,China,Beijing,Beijing,101100,Asia/Shanghai,0,39.9075,116.39723,2
2001:250:2000::,2001:250:2000:ffff:ffff:ffff:ffff:ffff,AS,CN,China,Sichuan,Chengdu,610100,Asia/Shanghai,0,30.66667,104.06667,2
2001:250:2001::,2001:250:2001:ffff:ffff:ffff:ffff:ffff,AS,CN,China,Sichuan,Chengdu,610100,Asia/Shanghai,0,30.66667,104.06667,2
2001:250:2002::,2001:250:2002:ffff:ffff:ffff:ffff:ffff,AS,CN,China,Sichuan,Chengdu,610100,Asia/Shanghai,0,30.66667,104.06667,2
2001:250:2003::,2001:250:2003:ffff:ffff:ffff:ffff:ffff,AS,CN,China,Sichuan,Chengdu,610100,Asia/Shanghai,0,30.66667,104.06667,2
2001:250:2004::,2001:250:2004:ffff:ffff:ffff:ffff:ffff,AS,CN,China,Sichuan,Chengdu,610100,Asia/Shanghai,0,30.66667,104.06667,2
2001:250:2005::,2001:250:2005:ffff:ffff:ffff:ffff:ffff,AS,CN,China,Sichuan,Chengdu,610100,Asia/Shanghai,0,30.66667,104.06667,2
2001:250:2006::,2001:250:2006:ffff:ffff:ffff:ffff:ffff,AS,CN,China,Sichuan,Panzhihua (Dongqu),,Asia/Shanghai,0,26.5683,101.732,2
2001:250:2007::,2001:250:2400:ffff:ffff:ffff:ffff:ffff,AS,CN,China,Beijing,Beijing,101100,Asia/Shanghai,0,39.9075,116.39723,2
2001:250:2401::,2001:250:2401:ffff:ffff:ffff:ffff:ffff,AS,CN,China,Chongqing,Chenjiaba (Wanzhou District),,Asia/Shanghai,0,30.7962,108.384,2
2001:250:2402::,2001:250:2bff:ffff:ffff:ffff:ffff:ffff,AS,CN,China,Beijing,Beijing,101100,Asia/Shanghai,0,39.9075,116.39723,2
2001:250:2c00::,2001:250:2c00:ffff:ffff:ffff:ffff:ffff,AS,CN,China,Guizhou,Guiyang,,Asia/Shanghai,0,26.4826,106.544,2
2001:250:2c01::,2001:250:2fff:ffff:ffff:ffff:ffff:ffff,AS,CN,China,Beijing,Beijing,101100,Asia/Shanghai,0,39.9075,116.39723,2
2001:250:3000::,2001:250:3000:ffff:ffff:ffff:ffff:ffff,AS,CN,China,Beijing,Dongfeng,101100,Asia/Shanghai,0,39.9365,116.49931,2
2001:250:3001::,2001:250:3001:ffff:ffff:ffff:ffff:ffff,AS,CN,China,Guangdong,Huangcun,510800,Asia/Shanghai,0,23.12904,113.40777,2
2001:250:3002::,2001:250:3002:ffff:ffff:ffff:ffff:ffff,AS,CN,China,Guangdong,Tangjiawan,,Asia/Shanghai,0,22.3606,113.596,2
2001:250:3003::,2001:250:3003:ffff:ffff:ffff:ffff:ffff,AS,CN,China,Guangdong,Tuopu (Jinping Qu),,Asia/Shanghai,0,23.4093,116.634,2
2001:250:3004::,2001:250:33ff:ffff:ffff:ffff:ffff:ffff,AS,CN,China,Beijing,Beijing,101100,Asia/Shanghai,0,39.9075,116.39723,2
2001:250:3400::,2001:250:3400:ffff:ffff:ffff:ffff:ffff,AS,CN,China,Guangxi,Guilin,541000,Asia/Shanghai,0,25.28022,110.29639,2
2001:250:3401::,2001:250:3401:ffff:ffff:ffff:ffff:ffff,AS,CN,China,Guangxi,Nanning,530100,Asia/Shanghai,0,22.81667,108.31667,2
2001:250:3402::,2001:250:3bff:ffff:ffff:ffff:ffff:ffff,AS,CN,China,Beijing,Beijing,101100,Asia/Shanghai,0,39.9075,116.39723,2
2001:250:3c00::,2001:250:3c00:ffff:ffff:ffff:ffff:ffff,AS,CN,China,Guangdong,Haikuotiankong,529600,Asia/Shanghai,0,22.52881,113.9399,2
2001:250:3c01::,2001:250:3c01:ffff:ffff:ffff:ffff:ffff,AS,CN,China,Guangdong,Shenzhen,518000,Asia/Shanghai,0,22.54554,114.0683,2
2001:250:3c02::,2001:250:3c02:ffff:ffff:ffff:ffff:ffff,AS,CN,China,Guangdong,Haikuotiankong,529600,Asia/Shanghai,0,22.52881,113.9399,2
2001:250:3c03::,2001:250:3c03:ffff:ffff:ffff:ffff:ffff,AS,CN,China,Guangdong,Haikuotiankong,529600,Asia/Shanghai,0,22.52881,113.9399,2
2001:250:3c04::,2001:250:3fff:ffff:ffff:ffff:ffff:ffff,AS,CN,China,Beijing,Beijing,101100,Asia/Shanghai,0,39.9075,116.39723,2
2001:250:4000::,2001:250:4000:ffff:ffff:ffff:ffff:ffff,AS,CN,China,Hubei,Guanshan,430100,Asia/Shanghai,0,30.50658,114.40339,2
2001:250:4001::,2001:250:4401:ffff:ffff:ffff:ffff:ffff,AS,CN,China,Beijing,Beijing,101100,Asia/Shanghai,0,39.9075,116.39723,2
2001:250:4402::,2001:250:4402:ffff:ffff:ffff:ffff:ffff,AS,CN,China,Hunan,Changsha,410000,Asia/Shanghai,0,28.19874,112.97087,2
2001:250:4403::,2001:250:5004:ffff:ffff:ffff:ffff:ffff,AS,CN,China,Beijing,Beijing,101100,Asia/Shanghai,0,39.9075,116.39723,2
2001:250:5005::,2001:250:5005:ffff:ffff:ffff:ffff:ffff,AS,CN,China,Jiangsu,Dongshan,,Asia/Shanghai,0,31.9557,118.833,2
2001:250:5006::,2001:250:500e:ffff:ffff:ffff:ffff:ffff,AS,CN,China,Beijing,Beijing,101100,Asia/Shanghai,0,39.9075,116.39723,2
2001:250:500f::,2001:250:500f:ffff:ffff:ffff:ffff:ffff,AS,CN,China,Jiangsu,Guoxiang,,Asia/Shanghai,0,31.2544,120.672,2
2001:250:5010::,2001:250:57ff:ffff:ffff:ffff:ffff:ffff,AS,CN,China,Beijing,Beijing,101100,Asia/Shanghai,0,39.9075,116.39723,2
2001:250:5800::,2001:250:5800:ffff:ffff:ffff:ffff:ffff,AS,CN,China,Shandong,Beizhai,,Asia/Shanghai,0,36.2197,120.529,2
2001:250:5801::,2001:250:9000:ffff:ffff:ffff:ffff:ffff,AS,CN,China,Beijing,Beijing,101100,Asia/Shanghai,0,39.9075,116.39723,2
2001:250:9001::,2001:250:9001:ffff:ffff:ffff:ffff:ffff,AS,CN,China,Beijing,Beijing,101100,Asia/Shanghai,0,39.9075,116.39723,2
2001:250:9002::,2001:251:ffff:ffff:ffff:ffff:ffff:ffff,AS,CN,China,Beijing,Beijing,101100,Asia/Shanghai,0,39.9075,116.39723,2
2001:252::,2001:252:ffff:ffff:ffff:ffff:ffff:ffff,AS,CN,China,Beijing,Haidian (Haidian Qu),,Asia/Shanghai,0,40.0075,116.327,2
2001:253::,2001:253:1:ffff:ffff:ffff:ffff:ffff,AS,CN,China,Beijing,Haidian (Haidian Qu),,Asia/Shanghai,0,40.0045,116.329,2
2001:253:2::,2001:253:2:ffff:ffff:ffff:ffff:ffff,AS,CN,China,Beijing,Haidian (Haidian Qu),,Asia/Shanghai,0,40.0018,116.333,2
2001:253:3::,2001:253:4:ffff:ffff:ffff:ffff:ffff,AS,CN,China,Beijing,Haidian (Haidian Qu),,Asia/Shanghai,0,40.0045,116.329,2
2001:253:5::,2001:253:5:ffff:ffff:ffff:ffff:ffff,AS,CN,China,Beijing,Haidian (Haidian Qu),,Asia/Shanghai,0,40.0018,116.333,2
2001:253:6::,2001:253:20:ffff:ffff:ffff:ffff:ffff,AS,CN,China,Beijing,Haidian (Haidian Qu),,Asia/Shanghai,0,40.0045,116.329,2
2001:253:21::,2001:253:21:ffff:ffff:ffff:ffff:ffff,AS,CN,China,Beijing,Haidian (Haidian Qu),,Asia/Shanghai,0,40.0018,116.333,2
2001:253:22::,2001:253:ffff:ffff:ffff:ffff:ffff:ffff,AS,CN,China,Beijing,Haidian (Haidian Qu),,Asia/Shanghai,0,40.0045,116.329,2
2001:254::,2001:254:ffff:ffff:ffff:ffff:ffff:ffff,AS,CN,China,Beijing,Haidian,101100,Asia/Shanghai,0,39.99064,116.28868,2
2001:255::,2001:255:ffff:ffff:ffff:ffff:ffff:ffff,AS,CN,China,Beijing,Haidian (Haidian Qu),,Asia/Shanghai,0,40.0045,116.329,2
2001:256::,2001:256:ffff:ffff:ffff:ffff:ffff:ffff,AS,CN,China,Beijing,Haidian (Haidian Qu),,Asia/Shanghai,0,40.0007,116.329,2
2001:257::,2001:257:ffff:ffff:ffff:ffff:ffff:ffff,OC,AU,Australia,Queensland,Brisbane,4000,Australia/Brisbane,0,-27.46794,153.02809,2
2001:258::,2001:258:ffff:ffff:ffff:ffff:ffff:ffff,AS,JP,Japan,Tokyo,Tokyo,100-2211,Asia/Tokyo,0,35.6895,139.69171,2
2001:259::,2001:259:ffff:ffff:ffff:ffff:ffff:ffff,OC,AU,Australia,New South Wales,Sydney,1001,Australia/Sydney,0,-33.86785,151.20732,2
2001:25a::,2001:25f:ffff:ffff:ffff:ffff:ffff:ffff,OC,AU,Australia,Queensland,Brisbane,4000,Australia/Brisbane,0,-27.46794,153.02809,2
2001:260::,2001:260:ffff:ffff:ffff:ffff:ffff:ffff,AS,JP,Japan,Tokyo,Tokyo,100-2211,Asia/Tokyo,0,35.6895,139.69171,2
2001:261::,2001:261:ffff:ffff:ffff:ffff:ffff:ffff,OC,AU,Australia,New South Wales,Sydney,1001,Australia/Sydney,0,-33.86785,151.20732,2
2001:262::,2001:263:ffff:ffff:ffff:ffff:ffff:ffff,OC,AU,Australia,Queensland,Brisbane,4000,Australia/Brisbane,0,-27.46794,153.02809,2
2001:264::,2001:267:ffff:ffff:ffff:ffff:ffff:ffff,OC,AU,Australia,New South Wales,Sydney,1001,Australia/Sydney,0,-33.86785,151.20732,2
2001:268::,2001:268:71ff:ffff:ffff:ffff:ffff:ffff,AS,JP,Japan,Tokyo,Tokyo,100-2211,Asia/Tokyo,0,35.6895,139.69171,2
2001:268:7200::,2001:268:7200:ffff:ffff:ffff:ffff:ffff,AS,JP,Japan,Chiba,Narashino,275-8666,Asia/Tokyo,0,35.68184,140.04152,2
2001:268:7201::,2001:268:7209:ffff:ffff:ffff:ffff:ffff,AS,JP,Japan,Tokyo,Tokyo,100-2211,Asia/Tokyo,0,35.6895,139.69171,2
2001:268:720a::,2001:268:720a:ffff:ffff:ffff:ffff:ffff,AS,JP,Japan,Ibaraki,Bandō,306-0692,Asia/Tokyo,0,36.06997,139.86705,2
2001:268:720b::,2001:268:7223:ffff:ffff:ffff:ffff:ffff,AS,JP,Japan,Tokyo,Tokyo,100-2211,Asia/Tokyo,0,35.6895,139.69171,2
2001:268:7224::,2001:268:7224:ffff:ffff:ffff:ffff:ffff,AS,JP,Japan,Tokyo,Akihabara,174-8740,Asia/Tokyo,0,35.69848,139.77253,2
2001:268:7225::,2001:268:7227:ffff:ffff:ffff:ffff:ffff,AS,JP,Japan,Tokyo,Tokyo,100-2211,Asia/Tokyo,0,35.6895,139.69171,2
2001:268:7228::,2001:268:7228:ffff:ffff:ffff:ffff:ffff,AS,JP,Japan,Saitama,Sōka,340-8686,Asia/Tokyo,0,35.83643,139.79957,2
2001:268:7229::,2001:268:722a:ffff:ffff:ffff:ffff:ffff,AS,JP,Japan,Tokyo,Tokyo,100-2211,Asia/Tokyo,0,35.6895,139.69171,2
2001:268:722b::,2001:268:722b:ffff:ffff:ffff:ffff:ffff,AS,JP,Japan,Saitama,Sōka,340-8686,Asia/Tokyo,0,35.83643,139.79957,2
2001:268:722c::,2001:268:7261:ffff:ffff:ffff:ffff:ffff,AS,JP,Japan,Tokyo,Tokyo,100-2211,Asia/Tokyo,0,35.6895,139.69171,2
2001:268:7262::,2001:268:7262:ffff:ffff:ffff:ffff:ffff,AS,JP,Japan,Chiba,Yachiyo,276-8580,Asia/Tokyo,0,35.73531,140.12445,2
2001:268:7263::,2001:268:72c4:ffff:ffff:ffff:ffff:ffff,AS,JP,Japan,Tokyo,Tokyo,100-2211,Asia/Tokyo,0,35.6895,139.69171,2
2001:268:72c5::,2001:268:72c5:ffff:ffff:ffff:ffff:ffff,AS,JP,Japan,Shizuoka,Kanbara,424-0949,Asia/Tokyo,0,35.11738,138.60687,2
2001:268:72c6::,2001:268:72c6:ffff:ffff:ffff:ffff:ffff,AS,JP,Japan,Aichi,Ichinomiya,494-8686,Asia/Tokyo,0,35.3,136.8,2
2001:268:72c7::,2001:268:72c7:ffff:ffff:ffff:ffff:ffff,AS,JP,Japan,Tokyo,Tokyo,100-2211,Asia/Tokyo,0,35.6895,139.69171,2
2001:268:72c8::,2001:268:72c8:ffff:ffff:ffff:ffff:ffff,AS,JP,Japan,Aichi,Toyota,473-8511,Asia/Tokyo,0,35.08333,137.15,2
2001:268:72c9::,2001:268:72ca:ffff:ffff:ffff:ffff:ffff,AS,JP,Japan,Tokyo,Tokyo,100-2211,Asia/Tokyo,0,35.6895,139.69171,2
2001:268:72cb::,2001:268:72cc:ffff:ffff:ffff:ffff:ffff,AS,JP,Japan,Aichi,Toyohashi,441-8686,Asia/Tokyo,0,34.76667,137.38333,2
2001:268:72cd::,2001:268:72cd:ffff:ffff:ffff:ffff:ffff,AS,JP,Japan,Gifu,Minokamo,505-8606,Asia/Tokyo,0,35.48199,137.02166,2
2001:268:72ce::,2001:268:72ce:ffff:ffff:ffff:ffff:ffff,AS,JP,Japan,Tokyo,Tokyo,100-2211,Asia/Tokyo,0,35.6895,139.69171,2
2001:268:72cf::,2001:268:72cf:ffff:ffff:ffff:ffff:ffff,AS,JP,Japan,Gifu,Minokamo,505-8606,Asia/Tokyo,0,35.48199,137.02166,2
2001:268:72d0::,2001:268:72d0:ffff:ffff:ffff:ffff:ffff,AS,JP,Japan,Tokyo,Tokyo,100-2211,Asia/Tokyo,0,35.6895,139.69171,2
2001:268:72d1::,2001:268:72d1:ffff:ffff:ffff:ffff:ffff,AS,JP,Japan,Shizuoka,Iwata,438-8718,Asia/Tokyo,0,34.7,137.85,2
2001:268:72d2::,2001:268:72d2:ffff:ffff:ffff:ffff:ffff,AS,JP,Japan,Aichi,Shinshiro,441-1956,Asia/Tokyo,0,34.9,137.5,2
2001:268:72d3::,2001:268:72d8:ffff:ffff:ffff:ffff:ffff,AS,JP,Japan,Tokyo,Tokyo,100-2211,Asia/Tokyo,0,35.6895,139.69171,2
2001:268:72d9::,2001:268:72d9:ffff:ffff:ffff:ffff:ffff,AS,JP,Japan,Fukuoka,Tagawa,826-8609,Asia/Tokyo,0,33.63333,130.8,2
2001:268:72da::,2001:268:72db:ffff:ffff:ffff:ffff:ffff,AS,JP,Japan,Tokyo,Tokyo,100-2211,Asia/Tokyo,0,35.6895,139.69171,2
2001:268:72dc::,2001:268:72dc:ffff:ffff:ffff:ffff:ffff,AS,JP,Japan,Aichi,Ichinomiya,494-8686,Asia/Tokyo,0,35.3,136.8,2
2001:268:72dd::,2001:268:72df:ffff:ffff:ffff:ffff:ffff,AS,JP,Japan,Tokyo,Tokyo,100-2211,Asia/Tokyo,0,35.6895,139.69171,2
2001:268:72e0::,2001:268:72e0:ffff:ffff:ffff:ffff:ffff,AS,JP,Japan,Aichi,Toyota,473-8511,Asia/Tokyo,0,35.08333,137.15,2
2001:268:72e1::,2001:268:72e2:ffff:ffff:ffff:ffff:ffff,AS,JP,Japan,Tokyo,Tokyo,100-2211,Asia/Tokyo,0,35.6895,139.69171,2
2001:268:72e3::,2001:268:72e3:ffff:ffff:ffff:ffff:ffff,AS,JP,Japan,Aichi,Toyohashi,441-8686,Asia/Tokyo,0,34.76667,137.38333,2
2001:268:72e4::,2001:268:72e9:ffff:ffff:ffff:ffff:ffff,AS,JP,Japan,Tokyo,Tokyo,100-2211,Asia/Tokyo,0,35.6895,139.69171,2
2001:268:72ea::,2001:268:72ea:ffff:ffff:ffff:ffff:ffff,AS,JP,Japan,Shizuoka,Iwata,438-8718,Asia/Tokyo,0,34.7,137.85,2
2001:268:72eb::,2001:268:72eb:ffff:ffff:ffff:ffff:ffff,AS,JP,Japan,Tokyo,Tokyo,100-2211,Asia/Tokyo,0,35.6895,139.69171,2
2001:268:72ec::,2001:268:72ec:ffff:ffff:ffff:ffff:ffff,AS,JP,Japan,Fukui,Echizen,915-8666,Asia/Tokyo,0,35.88571,136.17073,2
2001:268:72ed::,2001:268:72ed:ffff:ffff:ffff:ffff:ffff,AS,JP,Japan,Shiga,Hikone,529-1195,Asia/Tokyo,0,35.25,136.25,2
2001:268:72ee::,2001:268:72ee:ffff:ffff:ffff:ffff:ffff,AS,JP,Japan,Aichi,Toyohashi,441-8686,Asia/Tokyo,0,34.76667,137.38333,2
2001:268:72ef::,2001:268:72ef:ffff:ffff:ffff:ffff:ffff,AS,JP,Japan,Fukuoka,Tagawa,826-8609,Asia/Tokyo,0,33.63333,130.8,2
2001:268:72f0::,2001:268:732b:ffff:ffff:ffff:ffff:ffff,AS,JP,Japan,Tokyo,Tokyo,100-2211,Asia/Tokyo,0,35.6895,139.69171,2
2001:268:732c::,2001:268:732c:ffff:ffff:ffff:ffff:ffff,AS,JP,Japan,Fukuoka,Tagawa,826-8609,Asia/Tokyo,0,33.63333,130.8,2
2001:268:732d::,2001:268:7335:ffff:ffff:ffff:ffff:ffff,AS,JP,Japan,Tokyo,Tokyo,100-2211,Asia/Tokyo,0,35.6895,139.69171,2
2001:268:7336::,2001:268:7336:ffff:ffff:ffff:ffff:ffff,AS,JP,Japan,Fukuoka,Chikushino-shi,818-8686,Asia/Tokyo,0,33.49631,130.5156,2
2001:268:7337::,2001:268:737f:ffff:ffff:ffff:ffff:ffff,AS,JP,Japan,Tokyo,Tokyo,100-2211,Asia/Tokyo,0,35.6895,139.69171,2
2001:268:7380::,2001:268:7381:ffff:ffff:ffff:ffff:ffff,AS,JP,Japan,Chiba,Yotsukaidō,284-8555,Asia/Tokyo,0,35.65,140.16667,2
2001:268:7382::,2001:268:7382:ffff:ffff:ffff:ffff:ffff,AS,JP,Japan,Tokyo,Tokyo,100-2211,Asia/Tokyo,0,35.6895,139.69171,2
2001:268:7383::,2001:268:7383:ffff:ffff:ffff:ffff:ffff,AS,JP,Japan,Tokyo,Tokorozawa,359-8686,Asia/Tokyo,0,35.79916,139.46903,2
2001:268:7384::,2001:268:7389:ffff:ffff:ffff:ffff:ffff,AS,JP,Japan,Tokyo,Tokyo,100-2211,Asia/Tokyo,0,35.6895,139.69171,2
2001:268:738a::,2001:268:738a:ffff:ffff:ffff:ffff:ffff,AS,JP,Japan,Kanagawa,Hadano,259-1392,Asia/Tokyo,0,35.37111,139.22361,2
2001:268:738b::,2001:268:73b0:ffff:ffff:ffff:ffff:ffff,AS,JP,Japan,Tokyo,Tokyo,100-2211,Asia/Tokyo,0,35.6895,139.69171,2
2001:268:73b1::,2001:268:73b1:bfff:ffff:ffff:ffff:ffff,AS,JP,Japan,Mie,Komono,510-1328,Asia/Tokyo,0,35,136.51667,2
2001:268:73b1:c000::,2001:268:73b2:ffff:ffff:ffff:ffff:ffff,AS,JP,Japan,Tokyo,Tokyo,100-2211,Asia/Tokyo,0,35.6895,139.69171,2
2001:268:73b3::,2001:268:73b3:ffff:ffff:ffff:ffff:ffff,AS,JP,Japan,Nagano,Okaya,394-8686,Asia/Tokyo,0,36.05659,138.0451,2
2001:268:73b4::,2001:268:73b4:ffff:ffff:ffff:ffff:ffff,AS,JP,Japan,Aichi,Anjō,446-8686,Asia/Tokyo,0,34.95828,137.08054,2
2001:268:73b5::,2001:268:73b5:ffff:ffff:ffff:ffff:ffff,AS,JP,Japan,Tokyo,Tokyo,100-2211,Asia/Tokyo,0,35.6895,139.69171,2
2001:268:73b6::,2001:268:73b6:ffff:ffff:ffff:ffff:ffff,AS,JP,Japan,Fukui,Takefu,915-8666,Asia/Tokyo,0,35.90393,136.16687,2
2001:268:73b7::,2001:268:73b7:ffff:ffff:ffff:ffff:ffff,AS,JP,Japan,Tokyo,Tokyo,100-2211,Asia/Tokyo,0,35.6895,139.69171,2
2001:268:73b8::,2001:268:73b8:ffff:ffff:ffff:ffff:ffff,AS,JP,Japan,Aichi,Nagoya,460-0032,Asia/Tokyo,0,35.18147,136.90641,2
2001:268:73b9::,2001:268:73b9:ffff:ffff:ffff:ffff:ffff,AS,JP,Japan,Mie,Komono,510-1328,Asia/Tokyo,0,35,136.51667,2
2001:268:73ba::,2001:268:73ba:ffff:ffff:ffff:ffff:ffff,AS,JP,Japan,Aichi,Toyota,473-8511,Asia/Tokyo,0,35.08333,137.15,2
2001:268:73bb::,2001:268:73bb:bfff:ffff:ffff:ffff:ffff,AS,JP,Japan,Fukui,Takefu,915-8666,Asia/Tokyo,0,35.90393,136.16687,2
2001:268:73bb:c000::,2001:268:73c8:ffff:ffff:ffff:ffff:ffff,AS,JP,Japan,Tokyo,Tokyo,100-2211,Asia/Tokyo,0,35.6895,139.69171,2
2001:268:73c9::,2001:268:73c9:ffff:ffff:ffff:ffff:ffff,AS,JP,Japan,Hiroshima,Hiroshima,739-1794,Asia/Tokyo,0,34.4,132.45,2
2001:268:73ca::,2001:268:902c:3ff:ffff:ffff:ffff:ffff,AS,JP,Japan,Tokyo,Tokyo,100-2211,Asia/Tokyo,0,35.6895,139.69171,2
2001:268:902c:400::,2001:268:902c:ffff:ffff:ffff:ffff:ffff,AS,JP,Japan,Kanagawa,Yamato,242-8610,Asia/Tokyo,0,35.47276,139.45101,2
2001:268:902d::,2001:268:902e:27f:ffff:ffff:ffff:ffff,AS,JP,Japan,Tokyo,Tokyo,100-2211,Asia/Tokyo,0,35.6895,139.69171,2
2001:268:902e:280::,2001:268:902e:ffff:ffff:ffff:ffff:ffff,AS,JP,Japan,Kanagawa,Yamato,242-8610,Asia/Tokyo,0,35.47276,139.45101,2
2001:268:902f::,2001:268:902f:ffff:ffff:ffff:ffff:ffff,AS,JP,Japan,Kanagawa,Yamato,242-8610,Asia/Tokyo,0,35.47276,139.45101,2
2001:268:9030::,2001:268:9030:ffff:ffff:ffff:ffff:ffff,AS,JP,Japan,Fukuoka,Ashiya,807-0143,Asia/Tokyo,0,33.87346,130.65392,2
2001:268:9031::,2001:268:9031:ffff:ffff:ffff:ffff:ffff,AS,JP,Japan,Tokyo,Tokyo,100-2211,Asia/Tokyo,0,35.6895,139.69171,2
2001:268:9032::,2001:268:9032:ffff:ffff:ffff:ffff:ffff,AS,JP,Japan,Ōsaka,Suita,565-8565,Asia/Tokyo,0,34.76143,135.51567,2
2001:268:9033::,2001:268:9034:ffff:ffff:ffff:ffff:ffff,AS,JP,Japan,Tokyo,Tokyo,100-2211,Asia/Tokyo,0,35.6895,139.69171,2
2001:268:9035::,2001:268:9035:ffff:ffff:ffff:ffff:ffff,AS,JP,Japan,Shizuoka,Kosai,431-0496,Asia/Tokyo,0,34.70053,137.52253,2
2001:268:9036::,2001:268:9036:ffff:ffff:ffff:ffff:ffff,AS,JP,Japan,Chiba,Nagareyama,270-0198,Asia/Tokyo,0,35.8563,139.90266,2
2001:268:9037::,2001:268:904c:297f:ffff:ffff:ffff:ffff,AS,JP,Japan,Tokyo,Tokyo,100-2211,Asia/Tokyo,0,35.6895,139.69171,2
2001:268:904c:2980::,2001:268:904c:f2ff:ffff:ffff:ffff:ffff,AS,JP,Japan,Kanagawa,Yamato,242-8610,Asia/Tokyo,0,35.47276,139.45101,2
2001:268:904c:f300::,2001:268:904e:4fff:ffff:ffff:ffff:ffff,AS,JP,Japan,Tokyo,Tokyo,100-2211,Asia/Tokyo,0,35.6895,139.69171,2
2001:268:904e:5000::,2001:268:904e:f7ff:ffff:ffff:ffff:ffff,AS,JP,Japan,Tokyo,Tokyo,100-2211,Asia/Tokyo,0,35.6895,139.69171,2
2001:268:904e:f800::,2001:268:9050:41ff:ffff:ffff:ffff:ffff,AS,JP,Japan,Tokyo,Tokyo,100-2211,Asia/Tokyo,0,35.6895,139.69171,2
2001:268:9050:4200::,2001:268:9050:7f3f:ffff:ffff:ffff:ffff,AS,JP,Japan,Tokyo,Tokyo,100-2211,Asia/Tokyo,0,35.6895,139.69171,2
2001:268:9050:7f40::,2001:268:9052:fff:ffff:ffff:ffff:ffff,AS,JP,Japan,Tokyo,Tokyo,100-2211,Asia/Tokyo,0,35.6895,139.69171,2
2001:268:9052:1000::,2001:268:9052:ffff:ffff:ffff:ffff:ffff,AS,JP,Japan,Saitama,Fukaya,369-1295,Asia/Tokyo,0,36.1771,139.26029,2
2001:268:9053::,2001:268:9053:ffff:ffff:ffff:ffff:ffff,AS,JP,Japan,Tokyo,Nakano,165-8780,Asia/Tokyo,0,35.70449,139.66946,2
2001:268:9054::,2001:268:905d:7ff:ffff:ffff:ffff:ffff,AS,JP,Japan,Tokyo,Tokyo,100-2211,Asia/Tokyo,0,35.6895,139.69171,2
2001:268:905d:800::,2001:268:905d:e7ff:ffff:ffff:ffff:ffff,AS,JP,Japan,Chiba,Kisarazu,299-0271,Asia/Tokyo,0,35.38329,139.93254,2
2001:268:905d:e800::,2001:268:905f:11ff:ffff:ffff:ffff:ffff,AS,JP,Japan,Tokyo,Tokyo,100-2211,Asia/Tokyo,0,35.6895,139.69171,2
2001:268:905f:1200::,2001:268:905f:f3ff:ffff:ffff:ffff:ffff,AS,JP,Japan,Chiba,Kisarazu,299-0271,Asia/Tokyo,0,35.38329,139.93254,2
2001:268:905f:f400::,2001:268:9061:5ff:ffff:ffff:ffff:ffff,AS,JP,Japan,Tokyo,Tokyo,100-2211,Asia/Tokyo,0,35.6895,139.69171,2
2001:268:9061:600::,2001:268:9061:ffff:ffff:ffff:ffff:ffff,AS,JP,Japan,Chiba,Kisarazu,299-0271,Asia/Tokyo,0,35.38329,139.93254,2
2001:268:9062::,2001:268:9062:ffff:ffff:ffff:ffff:ffff,AS,JP,Japan,Hokkaido,Sapporo,065-8639,Asia/Tokyo,0,43.06667,141.35,2
2001:268:9063::,2001:268:9065:ffff:ffff:ffff:ffff:ffff,AS,JP,Japan,Tokyo,Tokyo,100-2211,Asia/Tokyo,0,35.6895,139.69171,2
2001:268:9066::,2001:268:9066:ffff:ffff:ffff:ffff:ffff,AS,JP,Japan,Saitama,Kawaguchi,334-8501,Asia/Tokyo,0,35.80521,139.71072,2
2001:268:9067::,2001:268:9090:7ff:ffff:ffff:ffff:ffff,AS,JP,Japan,Tokyo,Tokyo,100-2211,Asia/Tokyo,0,35.6895,139.69171,2
2001:268:9090:800::,2001:268:9090:f5ff:ffff:ffff:ffff:ffff,AS,JP,Japan,Tochigi,Ashikaga,329-4217,Asia/Tokyo,0,36.33333,139.45,2
2001:268:9090:f600::,2001:268:9092:1bff:ffff:ffff:ffff:ffff,AS,JP,Japan,Tokyo,Tokyo,100-2211,Asia/Tokyo,0,35.6895,139.69171,2
2001:268:9092:1c00::,2001:268:9092:e5ff:ffff:ffff:ffff:ffff,AS,JP,Japan,Kanagawa,Yamato,242-8610,Asia/Tokyo,0,35.47276,139.45101,2
2001:268:9092:e600::,2001:268:9094:b7f:ffff:ffff:ffff:ffff,AS,JP,Japan,Tokyo,Tokyo,100-2211,Asia/Tokyo,0,35.6895,139.69171,2
2001:268:9094:b80::,2001:268:9094:f73f:ffff:ffff:ffff:ffff,AS,JP,Japan,Kanagawa,Yokohama,247-8730,Asia/Tokyo,0,35.43333,139.65,2
2001:268:9094:f740::,2001:268:9095:ffff:ffff:ffff:ffff:ffff,AS,JP,Japan,Tokyo,Tokyo,100-2211,Asia/Tokyo,0,35.6895,139.69171,2
2001:268:9096::,2001:268:9096:ffff:ffff:ffff:ffff:ffff,AS,JP,Japan,Kanagawa,Yokohama,247-8730,Asia/Tokyo,0,35.43333,139.65,2
2001:268:9097::,2001:268:9099:ffff:ffff:ffff:ffff:ffff,AS,JP,Japan,Tokyo,Tokyo,100-2211,Asia/Tokyo,0,35.6895,139.69171,2
2001:268:909a::,2001:268:909a:ffff:ffff:ffff:ffff:ffff,AS,JP,Japan,Chiba,Kashiwa,277-8686,Asia/Tokyo,0,35.86224,139.97732,2
2001:268:909b::,2001:268:909e:ffff:ffff:ffff:ffff:ffff,AS,JP,Japan,Tokyo,Tokyo,100-2211,Asia/Tokyo,0,35.6895,139.69171,2
2001:268:909f::,2001:268:909f:ffff:ffff:ffff:ffff:ffff,AS,JP,Japan,Fukushima,Iwaki,979-3204,Asia/Tokyo,0,37.05,140.88333,2
2001:268:90a0::,2001:268:90a0:ffff:ffff:ffff:ffff:ffff,AS,JP,Japan,Tokyo,Tokyo,100-2211,Asia/Tokyo,0,35.6895,139.69171,2
2001:268:90a1::,2001:268:90a1:ffff:ffff:ffff:ffff:ffff,AS,JP,Japan,Kanagawa,Yamato,242-8610,Asia/Tokyo,0,35.47276,139.45101,2
2001:268:90a2::,2001:268:90a5:ffff:ffff:ffff:ffff:ffff,AS,JP,Japan,Tokyo,Tokyo,100-2211,Asia/Tokyo,0,35.6895,139.69171,2
